{
"type": "FeatureCollection",
"name": "lakes_berlin_unified",
"crs": { "type": "name", "properties": { "name": "urn:ogc:def:crs:OGC:1.3:CRS84" } },
"features": [
{ "type": "Feature", "properties": { "centroid_lon": 13.278930382099784, "centroid_lat": 52.543856172682297, "source": "OSM lakes" }, "geometry": { "type": "Point", "coordinates": [ 13.278930382099784, 52.543856172682297 ] } },
{ "type": "Feature", "properties": { "centroid_lon": 13.219207081051987, "centroid_lat": 52.550212745042657, "source": "OSM lakes" }, "geometry": { "type": "Point", "coordinates": [ 13.219207081051987, 52.550212745042657 ] } },
{ "type": "Feature", "properties": { "centroid_lon": 13.280683806642861, "centroid_lat": 52.486130764813041, "source": "OSM lakes" }, "geometry": { "type": "Point", "coordinates": [ 13.280683806642861, 52.486130764813041 ] } },
{ "type": "Feature", "properties": { "centroid_lon": 13.681003001383678, "centroid_lat": 52.386773592823431, "source": "OSM lakes" }, "geometry": { "type": "Point", "coordinates": [ 13.681003001383678, 52.386773592823431 ] } },
{ "type": "Feature", "properties": { "centroid_lon": 13.625819492700556, "centroid_lat": 52.400747119279224, "source": "OSM lakes" }, "geometry": { "type": "Point", "coordinates": [ 13.625819492700556, 52.400747119279224 ] } },
{ "type": "Feature", "properties": { "centroid_lon": 13.342409843277231, "centroid_lat": 52.511382596608854, "source": "OSM lakes" }, "geometry": { "type": "Point", "coordinates": [ 13.342409843277231, 52.511382596608854 ] } },
{ "type": "Feature", "properties": { "centroid_lon": 13.360881486397284, "centroid_lat": 52.564429077294193, "source": "OSM lakes" }, "geometry": { "type": "Point", "coordinates": [ 13.360881486397284, 52.564429077294193 ] } },
{ "type": "Feature", "properties": { "centroid_lon": 13.540301000022128, "centroid_lat": 52.529139119876554, "source": "OSM lakes" }, "geometry": { "type": "Point", "coordinates": [ 13.540301000022128, 52.529139119876554 ] } },
{ "type": "Feature", "properties": { "centroid_lon": 13.112259399844673, "centroid_lat": 52.465373739707971, "source": "OSM lakes" }, "geometry": { "type": "Point", "coordinates": [ 13.112259399844673, 52.465373739707971 ] } },
{ "type": "Feature", "properties": { "centroid_lon": 13.127598056517185, "centroid_lat": 52.436294151666118, "source": "OSM lakes" }, "geometry": { "type": "Point", "coordinates": [ 13.127598056517185, 52.436294151666118 ] } },
{ "type": "Feature", "properties": { "centroid_lon": 13.489121497880472, "centroid_lat": 52.548601247220105, "source": "OSM lakes" }, "geometry": { "type": "Point", "coordinates": [ 13.489121497880472, 52.548601247220105 ] } },
{ "type": "Feature", "properties": { "centroid_lon": 13.641019635973793, "centroid_lat": 52.356932907596963, "source": "OSM lakes" }, "geometry": { "type": "Point", "coordinates": [ 13.641019635973793, 52.356932907596963 ] } },
{ "type": "Feature", "properties": { "centroid_lon": 13.308928578658268, "centroid_lat": 52.597672433485215, "source": "OSM lakes" }, "geometry": { "type": "Point", "coordinates": [ 13.308928578658268, 52.597672433485215 ] } },
{ "type": "Feature", "properties": { "centroid_lon": 13.212941487280196, "centroid_lat": 52.519283508625982, "source": "OSM lakes" }, "geometry": { "type": "Point", "coordinates": [ 13.212941487280196, 52.519283508625982 ] } },
{ "type": "Feature", "properties": { "centroid_lon": 13.417134638368406, "centroid_lat": 52.434277084541762, "source": "OSM lakes" }, "geometry": { "type": "Point", "coordinates": [ 13.417134638368406, 52.434277084541762 ] } },
{ "type": "Feature", "properties": { "centroid_lon": 13.35709969438216, "centroid_lat": 52.602840458246995, "source": "OSM lakes" }, "geometry": { "type": "Point", "coordinates": [ 13.35709969438216, 52.602840458246995 ] } },
{ "type": "Feature", "properties": { "centroid_lon": 13.348096120666227, "centroid_lat": 52.602229595909783, "source": "OSM lakes" }, "geometry": { "type": "Point", "coordinates": [ 13.348096120666227, 52.602229595909783 ] } },
{ "type": "Feature", "properties": { "centroid_lon": 13.345042799933086, "centroid_lat": 52.610143706279807, "source": "OSM lakes" }, "geometry": { "type": "Point", "coordinates": [ 13.345042799933086, 52.610143706279807 ] } },
{ "type": "Feature", "properties": { "centroid_lon": 13.253471701300288, "centroid_lat": 52.575334591841901, "source": "OSM lakes" }, "geometry": { "type": "Point", "coordinates": [ 13.253471701300288, 52.575334591841901 ] } },
{ "type": "Feature", "properties": { "centroid_lon": 13.346793634071378, "centroid_lat": 52.517047955344935, "source": "OSM lakes" }, "geometry": { "type": "Point", "coordinates": [ 13.346793634071378, 52.517047955344935 ] } },
{ "type": "Feature", "properties": { "centroid_lon": 13.280127116610116, "centroid_lat": 52.494315626758585, "source": "OSM lakes" }, "geometry": { "type": "Point", "coordinates": [ 13.280127116610116, 52.494315626758585 ] } },
{ "type": "Feature", "properties": { "centroid_lon": 13.078208920004815, "centroid_lat": 52.424434016506801, "source": "OSM lakes" }, "geometry": { "type": "Point", "coordinates": [ 13.078208920004815, 52.424434016506801 ] } },
{ "type": "Feature", "properties": { "centroid_lon": -72.773092227702023, "centroid_lat": 41.579460737224913, "source": "OSM lakes" }, "geometry": { "type": "Point", "coordinates": [ -72.773092227702023, 41.579460737224913 ] } },
{ "type": "Feature", "properties": { "centroid_lon": 13.593828813362569, "centroid_lat": 52.492676789950025, "source": "OSM lakes" }, "geometry": { "type": "Point", "coordinates": [ 13.593828813362569, 52.492676789950025 ] } },
{ "type": "Feature", "properties": { "centroid_lon": 13.591295381115524, "centroid_lat": 52.500127608494573, "source": "OSM lakes" }, "geometry": { "type": "Point", "coordinates": [ 13.591295381115524, 52.500127608494573 ] } },
{ "type": "Feature", "properties": { "centroid_lon": 13.574190679970981, "centroid_lat": 52.516412345911633, "source": "OSM lakes" }, "geometry": { "type": "Point", "coordinates": [ 13.574190679970981, 52.516412345911633 ] } },
{ "type": "Feature", "properties": { "centroid_lon": 13.276153410607732, "centroid_lat": 52.488298427409809, "source": "OSM lakes" }, "geometry": { "type": "Point", "coordinates": [ 13.276153410607732, 52.488298427409809 ] } },
{ "type": "Feature", "properties": { "centroid_lon": 13.333949724014204, "centroid_lat": 52.448079693088054, "source": "OSM lakes" }, "geometry": { "type": "Point", "coordinates": [ 13.333949724014204, 52.448079693088054 ] } },
{ "type": "Feature", "properties": { "centroid_lon": 13.2346934994719, "centroid_lat": 52.552427952908367, "source": "OSM lakes" }, "geometry": { "type": "Point", "coordinates": [ 13.2346934994719, 52.552427952908367 ] } },
{ "type": "Feature", "properties": { "centroid_lon": 13.413003319651931, "centroid_lat": 52.433657330784889, "source": "OSM lakes" }, "geometry": { "type": "Point", "coordinates": [ 13.413003319651931, 52.433657330784889 ] } },
{ "type": "Feature", "properties": { "centroid_lon": 13.443544660781578, "centroid_lat": 52.495125382050482, "source": "OSM lakes" }, "geometry": { "type": "Point", "coordinates": [ 13.443544660781578, 52.495125382050482 ] } },
{ "type": "Feature", "properties": { "centroid_lon": 13.235741385204127, "centroid_lat": 52.559667841229732, "source": "OSM lakes" }, "geometry": { "type": "Point", "coordinates": [ 13.235741385204127, 52.559667841229732 ] } },
{ "type": "Feature", "properties": { "centroid_lon": 13.193265348661964, "centroid_lat": 52.515334585746103, "source": "OSM lakes" }, "geometry": { "type": "Point", "coordinates": [ 13.193265348661964, 52.515334585746103 ] } },
{ "type": "Feature", "properties": { "centroid_lon": 13.612179417682071, "centroid_lat": 52.499719410732624, "source": "OSM lakes" }, "geometry": { "type": "Point", "coordinates": [ 13.612179417682071, 52.499719410732624 ] } },
{ "type": "Feature", "properties": { "centroid_lon": -72.754003619077011, "centroid_lat": 41.640945921800423, "source": "OSM lakes" }, "geometry": { "type": "Point", "coordinates": [ -72.754003619077011, 41.640945921800423 ] } },
{ "type": "Feature", "properties": { "centroid_lon": 13.524471414534714, "centroid_lat": 52.503258458912363, "source": "OSM lakes" }, "geometry": { "type": "Point", "coordinates": [ 13.524471414534714, 52.503258458912363 ] } },
{ "type": "Feature", "properties": { "centroid_lon": -72.75749095609477, "centroid_lat": 41.640083132195016, "source": "OSM lakes" }, "geometry": { "type": "Point", "coordinates": [ -72.75749095609477, 41.640083132195016 ] } },
{ "type": "Feature", "properties": { "centroid_lon": 13.146247471902392, "centroid_lat": 52.536301857307258, "source": "OSM lakes" }, "geometry": { "type": "Point", "coordinates": [ 13.146247471902392, 52.536301857307258 ] } },
{ "type": "Feature", "properties": { "centroid_lon": 13.475775730648804, "centroid_lat": 52.455464564412139, "source": "OSM lakes" }, "geometry": { "type": "Point", "coordinates": [ 13.475775730648804, 52.455464564412139 ] } },
{ "type": "Feature", "properties": { "centroid_lon": 13.21332272092438, "centroid_lat": 52.442075692520937, "source": "OSM lakes" }, "geometry": { "type": "Point", "coordinates": [ 13.21332272092438, 52.442075692520937 ] } },
{ "type": "Feature", "properties": { "centroid_lon": 13.272907150781906, "centroid_lat": 52.488474177958068, "source": "OSM lakes" }, "geometry": { "type": "Point", "coordinates": [ 13.272907150781906, 52.488474177958068 ] } },
{ "type": "Feature", "properties": { "centroid_lon": 13.314797053172644, "centroid_lat": 52.483685450123097, "source": "OSM lakes" }, "geometry": { "type": "Point", "coordinates": [ 13.314797053172644, 52.483685450123097 ] } },
{ "type": "Feature", "properties": { "centroid_lon": 13.272662194080654, "centroid_lat": 52.447221072884489, "source": "OSM lakes" }, "geometry": { "type": "Point", "coordinates": [ 13.272662194080654, 52.447221072884489 ] } },
{ "type": "Feature", "properties": { "centroid_lon": 13.289095643827729, "centroid_lat": 52.506695041519293, "source": "OSM lakes" }, "geometry": { "type": "Point", "coordinates": [ 13.289095643827729, 52.506695041519293 ] } },
{ "type": "Feature", "properties": { "centroid_lon": 13.267837936711571, "centroid_lat": 52.486347015502915, "source": "OSM lakes" }, "geometry": { "type": "Point", "coordinates": [ 13.267837936711571, 52.486347015502915 ] } },
{ "type": "Feature", "properties": { "centroid_lon": 13.258697879323416, "centroid_lat": 52.482167911537218, "source": "OSM lakes" }, "geometry": { "type": "Point", "coordinates": [ 13.258697879323416, 52.482167911537218 ] } },
{ "type": "Feature", "properties": { "centroid_lon": 13.262394769466187, "centroid_lat": 52.470040307434751, "source": "OSM lakes" }, "geometry": { "type": "Point", "coordinates": [ 13.262394769466187, 52.470040307434751 ] } },
{ "type": "Feature", "properties": { "centroid_lon": 13.162966850386482, "centroid_lat": 52.416771885405844, "source": "OSM lakes" }, "geometry": { "type": "Point", "coordinates": [ 13.162966850386482, 52.416771885405844 ] } },
{ "type": "Feature", "properties": { "centroid_lon": 13.14061685672986, "centroid_lat": 52.40898715575846, "source": "OSM lakes" }, "geometry": { "type": "Point", "coordinates": [ 13.14061685672986, 52.40898715575846 ] } },
{ "type": "Feature", "properties": { "centroid_lon": 13.0927851111169, "centroid_lat": 52.410990319493507, "source": "OSM lakes" }, "geometry": { "type": "Point", "coordinates": [ 13.0927851111169, 52.410990319493507 ] } },
{ "type": "Feature", "properties": { "centroid_lon": 13.172864320424749, "centroid_lat": 52.427874129575649, "source": "OSM lakes" }, "geometry": { "type": "Point", "coordinates": [ 13.172864320424749, 52.427874129575649 ] } },
{ "type": "Feature", "properties": { "centroid_lon": 13.15033137220502, "centroid_lat": 52.411402532060499, "source": "OSM lakes" }, "geometry": { "type": "Point", "coordinates": [ 13.15033137220502, 52.411402532060499 ] } },
{ "type": "Feature", "properties": { "centroid_lon": 13.233655303934386, "centroid_lat": 52.451876915611592, "source": "OSM lakes" }, "geometry": { "type": "Point", "coordinates": [ 13.233655303934386, 52.451876915611592 ] } },
{ "type": "Feature", "properties": { "centroid_lon": 13.23508592032435, "centroid_lat": 52.441423110162781, "source": "OSM lakes" }, "geometry": { "type": "Point", "coordinates": [ 13.23508592032435, 52.441423110162781 ] } },
{ "type": "Feature", "properties": { "centroid_lon": 13.330006495121721, "centroid_lat": 52.544104857632611, "source": "OSM lakes" }, "geometry": { "type": "Point", "coordinates": [ 13.330006495121721, 52.544104857632611 ] } },
{ "type": "Feature", "properties": { "centroid_lon": 13.200519683057104, "centroid_lat": 52.51471140311142, "source": "OSM lakes" }, "geometry": { "type": "Point", "coordinates": [ 13.200519683057104, 52.51471140311142 ] } },
{ "type": "Feature", "properties": { "centroid_lon": 13.333818456670215, "centroid_lat": 52.553780734399403, "source": "OSM lakes" }, "geometry": { "type": "Point", "coordinates": [ 13.333818456670215, 52.553780734399403 ] } },
{ "type": "Feature", "properties": { "centroid_lon": 13.330302413373117, "centroid_lat": 52.555943032747599, "source": "OSM lakes" }, "geometry": { "type": "Point", "coordinates": [ 13.330302413373117, 52.555943032747599 ] } },
{ "type": "Feature", "properties": { "centroid_lon": 13.331307493633886, "centroid_lat": 52.555260085214996, "source": "OSM lakes" }, "geometry": { "type": "Point", "coordinates": [ 13.331307493633886, 52.555260085214996 ] } },
{ "type": "Feature", "properties": { "centroid_lon": 13.23359402299036, "centroid_lat": 52.49111082759412, "source": "OSM lakes" }, "geometry": { "type": "Point", "coordinates": [ 13.23359402299036, 52.49111082759412 ] } },
{ "type": "Feature", "properties": { "centroid_lon": 13.361240115730151, "centroid_lat": 52.58670238885292, "source": "OSM lakes" }, "geometry": { "type": "Point", "coordinates": [ 13.361240115730151, 52.58670238885292 ] } },
{ "type": "Feature", "properties": { "centroid_lon": 13.363656060742532, "centroid_lat": 52.536796635725658, "source": "OSM lakes" }, "geometry": { "type": "Point", "coordinates": [ 13.363656060742532, 52.536796635725658 ] } },
{ "type": "Feature", "properties": { "centroid_lon": 13.480818353217201, "centroid_lat": 52.563921946647149, "source": "OSM lakes" }, "geometry": { "type": "Point", "coordinates": [ 13.480818353217201, 52.563921946647149 ] } },
{ "type": "Feature", "properties": { "centroid_lon": 13.48232983455069, "centroid_lat": 52.548826014545966, "source": "OSM lakes" }, "geometry": { "type": "Point", "coordinates": [ 13.48232983455069, 52.548826014545966 ] } },
{ "type": "Feature", "properties": { "centroid_lon": 13.276197674477649, "centroid_lat": 52.581882080866755, "source": "OSM lakes" }, "geometry": { "type": "Point", "coordinates": [ 13.276197674477649, 52.581882080866755 ] } },
{ "type": "Feature", "properties": { "centroid_lon": 13.323754005285071, "centroid_lat": 52.616366389085719, "source": "OSM lakes" }, "geometry": { "type": "Point", "coordinates": [ 13.323754005285071, 52.616366389085719 ] } },
{ "type": "Feature", "properties": { "centroid_lon": 13.334497604539258, "centroid_lat": 52.617123241997348, "source": "OSM lakes" }, "geometry": { "type": "Point", "coordinates": [ 13.334497604539258, 52.617123241997348 ] } },
{ "type": "Feature", "properties": { "centroid_lon": 13.363203318379622, "centroid_lat": 52.622152798526159, "source": "OSM lakes" }, "geometry": { "type": "Point", "coordinates": [ 13.363203318379622, 52.622152798526159 ] } },
{ "type": "Feature", "properties": { "centroid_lon": 13.370690682368902, "centroid_lat": 52.625792185807157, "source": "OSM lakes" }, "geometry": { "type": "Point", "coordinates": [ 13.370690682368902, 52.625792185807157 ] } },
{ "type": "Feature", "properties": { "centroid_lon": 13.419646612521063, "centroid_lat": 52.435654758342451, "source": "OSM lakes" }, "geometry": { "type": "Point", "coordinates": [ 13.419646612521063, 52.435654758342451 ] } },
{ "type": "Feature", "properties": { "centroid_lon": 13.165198052429201, "centroid_lat": 52.544922421137812, "source": "OSM lakes" }, "geometry": { "type": "Point", "coordinates": [ 13.165198052429201, 52.544922421137812 ] } },
{ "type": "Feature", "properties": { "centroid_lon": 13.129727076525599, "centroid_lat": 52.555431361880878, "source": "OSM lakes" }, "geometry": { "type": "Point", "coordinates": [ 13.129727076525599, 52.555431361880878 ] } },
{ "type": "Feature", "properties": { "centroid_lon": 13.21504433036829, "centroid_lat": 52.604252265461575, "source": "OSM lakes" }, "geometry": { "type": "Point", "coordinates": [ 13.21504433036829, 52.604252265461575 ] } },
{ "type": "Feature", "properties": { "centroid_lon": 13.212378595935254, "centroid_lat": 52.615269725825812, "source": "OSM lakes" }, "geometry": { "type": "Point", "coordinates": [ 13.212378595935254, 52.615269725825812 ] } },
{ "type": "Feature", "properties": { "centroid_lon": 13.250154332888195, "centroid_lat": 52.514080413430946, "source": "OSM lakes" }, "geometry": { "type": "Point", "coordinates": [ 13.250154332888195, 52.514080413430946 ] } },
{ "type": "Feature", "properties": { "centroid_lon": 13.250047337772548, "centroid_lat": 52.55840622852061, "source": "OSM lakes" }, "geometry": { "type": "Point", "coordinates": [ 13.250047337772548, 52.55840622852061 ] } },
{ "type": "Feature", "properties": { "centroid_lon": 13.247613814611478, "centroid_lat": 52.557005050584714, "source": "OSM lakes" }, "geometry": { "type": "Point", "coordinates": [ 13.247613814611478, 52.557005050584714 ] } },
{ "type": "Feature", "properties": { "centroid_lon": 13.246845504678108, "centroid_lat": 52.558450535977741, "source": "OSM lakes" }, "geometry": { "type": "Point", "coordinates": [ 13.246845504678108, 52.558450535977741 ] } },
{ "type": "Feature", "properties": { "centroid_lon": 13.341750797625012, "centroid_lat": 52.565976633010628, "source": "OSM lakes" }, "geometry": { "type": "Point", "coordinates": [ 13.341750797625012, 52.565976633010628 ] } },
{ "type": "Feature", "properties": { "centroid_lon": 13.345185702582976, "centroid_lat": 52.577379334866968, "source": "OSM lakes" }, "geometry": { "type": "Point", "coordinates": [ 13.345185702582976, 52.577379334866968 ] } },
{ "type": "Feature", "properties": { "centroid_lon": 13.341451359092719, "centroid_lat": 52.482915635799053, "source": "OSM lakes" }, "geometry": { "type": "Point", "coordinates": [ 13.341451359092719, 52.482915635799053 ] } },
{ "type": "Feature", "properties": { "centroid_lon": 13.29055640594896, "centroid_lat": 52.465870678828232, "source": "OSM lakes" }, "geometry": { "type": "Point", "coordinates": [ 13.29055640594896, 52.465870678828232 ] } },
{ "type": "Feature", "properties": { "centroid_lon": 13.146242533875112, "centroid_lat": 52.548796940093354, "source": "OSM lakes" }, "geometry": { "type": "Point", "coordinates": [ 13.146242533875112, 52.548796940093354 ] } },
{ "type": "Feature", "properties": { "centroid_lon": 13.208499462331805, "centroid_lat": 52.514605369222799, "source": "OSM lakes" }, "geometry": { "type": "Point", "coordinates": [ 13.208499462331805, 52.514605369222799 ] } },
{ "type": "Feature", "properties": { "centroid_lon": 13.215316828177892, "centroid_lat": 52.477412059032027, "source": "OSM lakes" }, "geometry": { "type": "Point", "coordinates": [ 13.215316828177892, 52.477412059032027 ] } },
{ "type": "Feature", "properties": { "centroid_lon": 13.418286885671254, "centroid_lat": 52.50578838929404, "source": "OSM lakes" }, "geometry": { "type": "Point", "coordinates": [ 13.418286885671254, 52.50578838929404 ] } },
{ "type": "Feature", "properties": { "centroid_lon": 13.325711567580976, "centroid_lat": 52.579072115925456, "source": "OSM lakes" }, "geometry": { "type": "Point", "coordinates": [ 13.325711567580976, 52.579072115925456 ] } },
{ "type": "Feature", "properties": { "centroid_lon": 13.27158935697166, "centroid_lat": 52.464387388941063, "source": "OSM lakes" }, "geometry": { "type": "Point", "coordinates": [ 13.27158935697166, 52.464387388941063 ] } },
{ "type": "Feature", "properties": { "centroid_lon": 13.361676359315799, "centroid_lat": 52.456817012523651, "source": "OSM lakes" }, "geometry": { "type": "Point", "coordinates": [ 13.361676359315799, 52.456817012523651 ] } },
{ "type": "Feature", "properties": { "centroid_lon": 13.555183296817283, "centroid_lat": 52.399403443463591, "source": "OSM lakes" }, "geometry": { "type": "Point", "coordinates": [ 13.555183296817283, 52.399403443463591 ] } },
{ "type": "Feature", "properties": { "centroid_lon": 13.655110256315725, "centroid_lat": 52.344245191025912, "source": "OSM lakes" }, "geometry": { "type": "Point", "coordinates": [ 13.655110256315725, 52.344245191025912 ] } },
{ "type": "Feature", "properties": { "centroid_lon": 13.230210796549359, "centroid_lat": 52.612045630975118, "source": "OSM lakes" }, "geometry": { "type": "Point", "coordinates": [ 13.230210796549359, 52.612045630975118 ] } },
{ "type": "Feature", "properties": { "centroid_lon": 13.444141483934548, "centroid_lat": 52.450764044461216, "source": "OSM lakes" }, "geometry": { "type": "Point", "coordinates": [ 13.444141483934548, 52.450764044461216 ] } },
{ "type": "Feature", "properties": { "centroid_lon": 13.366360131620969, "centroid_lat": 52.457828237174674, "source": "OSM lakes" }, "geometry": { "type": "Point", "coordinates": [ 13.366360131620969, 52.457828237174674 ] } },
{ "type": "Feature", "properties": { "centroid_lon": 13.325828510224479, "centroid_lat": 52.444501475368909, "source": "OSM lakes" }, "geometry": { "type": "Point", "coordinates": [ 13.325828510224479, 52.444501475368909 ] } },
{ "type": "Feature", "properties": { "centroid_lon": 13.561620511589528, "centroid_lat": 52.576247940165551, "source": "OSM lakes" }, "geometry": { "type": "Point", "coordinates": [ 13.561620511589528, 52.576247940165551 ] } },
{ "type": "Feature", "properties": { "centroid_lon": 13.215520764949686, "centroid_lat": 52.480386665977811, "source": "OSM lakes" }, "geometry": { "type": "Point", "coordinates": [ 13.215520764949686, 52.480386665977811 ] } },
{ "type": "Feature", "properties": { "centroid_lon": 13.65640538459515, "centroid_lat": 52.395324393139525, "source": "OSM lakes" }, "geometry": { "type": "Point", "coordinates": [ 13.65640538459515, 52.395324393139525 ] } },
{ "type": "Feature", "properties": { "centroid_lon": 13.307417580686208, "centroid_lat": 52.452479810156298, "source": "OSM lakes" }, "geometry": { "type": "Point", "coordinates": [ 13.307417580686208, 52.452479810156298 ] } },
{ "type": "Feature", "properties": { "centroid_lon": 13.329998920291812, "centroid_lat": 52.448676777464591, "source": "OSM lakes" }, "geometry": { "type": "Point", "coordinates": [ 13.329998920291812, 52.448676777464591 ] } },
{ "type": "Feature", "properties": { "centroid_lon": 13.337060097989433, "centroid_lat": 52.447487164554879, "source": "OSM lakes" }, "geometry": { "type": "Point", "coordinates": [ 13.337060097989433, 52.447487164554879 ] } },
{ "type": "Feature", "properties": { "centroid_lon": 13.451244371806906, "centroid_lat": 52.448646662331235, "source": "OSM lakes" }, "geometry": { "type": "Point", "coordinates": [ 13.451244371806906, 52.448646662331235 ] } },
{ "type": "Feature", "properties": { "centroid_lon": 13.411889748841311, "centroid_lat": 52.433176977641082, "source": "OSM lakes" }, "geometry": { "type": "Point", "coordinates": [ 13.411889748841311, 52.433176977641082 ] } },
{ "type": "Feature", "properties": { "centroid_lon": 13.419502731448601, "centroid_lat": 52.430600677795447, "source": "OSM lakes" }, "geometry": { "type": "Point", "coordinates": [ 13.419502731448601, 52.430600677795447 ] } },
{ "type": "Feature", "properties": { "centroid_lon": 13.567020382351391, "centroid_lat": 52.436890838494037, "source": "OSM lakes" }, "geometry": { "type": "Point", "coordinates": [ 13.567020382351391, 52.436890838494037 ] } },
{ "type": "Feature", "properties": { "centroid_lon": 13.273175990452012, "centroid_lat": 52.466907451134674, "source": "OSM lakes" }, "geometry": { "type": "Point", "coordinates": [ 13.273175990452012, 52.466907451134674 ] } },
{ "type": "Feature", "properties": { "centroid_lon": 13.436414951304249, "centroid_lat": 52.447382785125441, "source": "OSM lakes" }, "geometry": { "type": "Point", "coordinates": [ 13.436414951304249, 52.447382785125441 ] } },
{ "type": "Feature", "properties": { "centroid_lon": 13.149205804689716, "centroid_lat": 52.529077762006906, "source": "OSM lakes" }, "geometry": { "type": "Point", "coordinates": [ 13.149205804689716, 52.529077762006906 ] } },
{ "type": "Feature", "properties": { "centroid_lon": 13.513344111166658, "centroid_lat": 52.403137269982203, "source": "OSM lakes" }, "geometry": { "type": "Point", "coordinates": [ 13.513344111166658, 52.403137269982203 ] } },
{ "type": "Feature", "properties": { "centroid_lon": 13.51054168117793, "centroid_lat": 52.407861081164249, "source": "OSM lakes" }, "geometry": { "type": "Point", "coordinates": [ 13.51054168117793, 52.407861081164249 ] } },
{ "type": "Feature", "properties": { "centroid_lon": 13.507168058055544, "centroid_lat": 52.407108077277407, "source": "OSM lakes" }, "geometry": { "type": "Point", "coordinates": [ 13.507168058055544, 52.407108077277407 ] } },
{ "type": "Feature", "properties": { "centroid_lon": 13.509210415855684, "centroid_lat": 52.406586598842914, "source": "OSM lakes" }, "geometry": { "type": "Point", "coordinates": [ 13.509210415855684, 52.406586598842914 ] } },
{ "type": "Feature", "properties": { "centroid_lon": 13.358625067863766, "centroid_lat": 52.414936808275847, "source": "OSM lakes" }, "geometry": { "type": "Point", "coordinates": [ 13.358625067863766, 52.414936808275847 ] } },
{ "type": "Feature", "properties": { "centroid_lon": 13.248399172628217, "centroid_lat": 52.408173066616285, "source": "OSM lakes" }, "geometry": { "type": "Point", "coordinates": [ 13.248399172628217, 52.408173066616285 ] } },
{ "type": "Feature", "properties": { "centroid_lon": 13.531159568217475, "centroid_lat": 52.561223583191264, "source": "OSM lakes" }, "geometry": { "type": "Point", "coordinates": [ 13.531159568217475, 52.561223583191264 ] } },
{ "type": "Feature", "properties": { "centroid_lon": 13.41041405131563, "centroid_lat": 52.390603391239239, "source": "OSM lakes" }, "geometry": { "type": "Point", "coordinates": [ 13.41041405131563, 52.390603391239239 ] } },
{ "type": "Feature", "properties": { "centroid_lon": 13.37062923227082, "centroid_lat": 52.514576177402283, "source": "OSM lakes" }, "geometry": { "type": "Point", "coordinates": [ 13.37062923227082, 52.514576177402283 ] } },
{ "type": "Feature", "properties": { "centroid_lon": 13.376338912406586, "centroid_lat": 52.529303682953646, "source": "OSM lakes" }, "geometry": { "type": "Point", "coordinates": [ 13.376338912406586, 52.529303682953646 ] } },
{ "type": "Feature", "properties": { "centroid_lon": 13.257197895346454, "centroid_lat": 52.444263392665334, "source": "OSM lakes" }, "geometry": { "type": "Point", "coordinates": [ 13.257197895346454, 52.444263392665334 ] } },
{ "type": "Feature", "properties": { "centroid_lon": 13.357876023446874, "centroid_lat": 52.436673050672674, "source": "OSM lakes" }, "geometry": { "type": "Point", "coordinates": [ 13.357876023446874, 52.436673050672674 ] } },
{ "type": "Feature", "properties": { "centroid_lon": 13.2873699665759, "centroid_lat": 52.449259089644237, "source": "OSM lakes" }, "geometry": { "type": "Point", "coordinates": [ 13.2873699665759, 52.449259089644237 ] } },
{ "type": "Feature", "properties": { "centroid_lon": 13.334857396001841, "centroid_lat": 52.449187989746335, "source": "OSM lakes" }, "geometry": { "type": "Point", "coordinates": [ 13.334857396001841, 52.449187989746335 ] } },
{ "type": "Feature", "properties": { "centroid_lon": 13.646231906272234, "centroid_lat": 52.374292861643845, "source": "OSM lakes" }, "geometry": { "type": "Point", "coordinates": [ 13.646231906272234, 52.374292861643845 ] } },
{ "type": "Feature", "properties": { "centroid_lon": 13.160728000696093, "centroid_lat": 52.530360841651969, "source": "OSM lakes" }, "geometry": { "type": "Point", "coordinates": [ 13.160728000696093, 52.530360841651969 ] } },
{ "type": "Feature", "properties": { "centroid_lon": 13.264899552316752, "centroid_lat": 52.636749942350093, "source": "OSM lakes" }, "geometry": { "type": "Point", "coordinates": [ 13.264899552316752, 52.636749942350093 ] } },
{ "type": "Feature", "properties": { "centroid_lon": 13.278636526155699, "centroid_lat": 52.637235443508459, "source": "OSM lakes" }, "geometry": { "type": "Point", "coordinates": [ 13.278636526155699, 52.637235443508459 ] } },
{ "type": "Feature", "properties": { "centroid_lon": 13.284008330370265, "centroid_lat": 52.450386558989017, "source": "OSM lakes" }, "geometry": { "type": "Point", "coordinates": [ 13.284008330370265, 52.450386558989017 ] } },
{ "type": "Feature", "properties": { "centroid_lon": 13.417779336318691, "centroid_lat": 52.431998465594759, "source": "OSM lakes" }, "geometry": { "type": "Point", "coordinates": [ 13.417779336318691, 52.431998465594759 ] } },
{ "type": "Feature", "properties": { "centroid_lon": 13.678091405729941, "centroid_lat": 52.363296409359677, "source": "OSM lakes" }, "geometry": { "type": "Point", "coordinates": [ 13.678091405729941, 52.363296409359677 ] } },
{ "type": "Feature", "properties": { "centroid_lon": 13.23090254479418, "centroid_lat": 52.424501982277171, "source": "OSM lakes" }, "geometry": { "type": "Point", "coordinates": [ 13.23090254479418, 52.424501982277171 ] } },
{ "type": "Feature", "properties": { "centroid_lon": 13.289166485998695, "centroid_lat": 52.503380624781052, "source": "OSM lakes" }, "geometry": { "type": "Point", "coordinates": [ 13.289166485998695, 52.503380624781052 ] } },
{ "type": "Feature", "properties": { "centroid_lon": 13.39367586862169, "centroid_lat": 52.605789705778768, "source": "OSM lakes" }, "geometry": { "type": "Point", "coordinates": [ 13.39367586862169, 52.605789705778768 ] } },
{ "type": "Feature", "properties": { "centroid_lon": 13.305720153709125, "centroid_lat": 52.454988856410921, "source": "OSM lakes" }, "geometry": { "type": "Point", "coordinates": [ 13.305720153709125, 52.454988856410921 ] } },
{ "type": "Feature", "properties": { "centroid_lon": 13.489512071311591, "centroid_lat": 52.60147380250794, "source": "OSM lakes" }, "geometry": { "type": "Point", "coordinates": [ 13.489512071311591, 52.60147380250794 ] } },
{ "type": "Feature", "properties": { "centroid_lon": 13.562739331998737, "centroid_lat": 52.481965257276137, "source": "OSM lakes" }, "geometry": { "type": "Point", "coordinates": [ 13.562739331998737, 52.481965257276137 ] } },
{ "type": "Feature", "properties": { "centroid_lon": 13.38325752139073, "centroid_lat": 52.463001160410926, "source": "OSM lakes" }, "geometry": { "type": "Point", "coordinates": [ 13.38325752139073, 52.463001160410926 ] } },
{ "type": "Feature", "properties": { "centroid_lon": 13.599146618025436, "centroid_lat": 52.448331647004856, "source": "OSM lakes" }, "geometry": { "type": "Point", "coordinates": [ 13.599146618025436, 52.448331647004856 ] } },
{ "type": "Feature", "properties": { "centroid_lon": 13.334414338630488, "centroid_lat": 52.612312369461634, "source": "OSM lakes" }, "geometry": { "type": "Point", "coordinates": [ 13.334414338630488, 52.612312369461634 ] } },
{ "type": "Feature", "properties": { "centroid_lon": 13.334640510327484, "centroid_lat": 52.61181159198604, "source": "OSM lakes" }, "geometry": { "type": "Point", "coordinates": [ 13.334640510327484, 52.61181159198604 ] } },
{ "type": "Feature", "properties": { "centroid_lon": 13.405452392357811, "centroid_lat": 52.578754871466906, "source": "OSM lakes" }, "geometry": { "type": "Point", "coordinates": [ 13.405452392357811, 52.578754871466906 ] } },
{ "type": "Feature", "properties": { "centroid_lon": 13.407916188971145, "centroid_lat": 52.441105362264217, "source": "OSM lakes" }, "geometry": { "type": "Point", "coordinates": [ 13.407916188971145, 52.441105362264217 ] } },
{ "type": "Feature", "properties": { "centroid_lon": 13.382782879775196, "centroid_lat": 52.464179418264102, "source": "OSM lakes" }, "geometry": { "type": "Point", "coordinates": [ 13.382782879775196, 52.464179418264102 ] } },
{ "type": "Feature", "properties": { "centroid_lon": 13.389766685584195, "centroid_lat": 52.461005769239904, "source": "OSM lakes" }, "geometry": { "type": "Point", "coordinates": [ 13.389766685584195, 52.461005769239904 ] } },
{ "type": "Feature", "properties": { "centroid_lon": 13.35328012217782, "centroid_lat": 52.450291770352635, "source": "OSM lakes" }, "geometry": { "type": "Point", "coordinates": [ 13.35328012217782, 52.450291770352635 ] } },
{ "type": "Feature", "properties": { "centroid_lon": 13.431885411989724, "centroid_lat": 52.422318191545443, "source": "OSM lakes" }, "geometry": { "type": "Point", "coordinates": [ 13.431885411989724, 52.422318191545443 ] } },
{ "type": "Feature", "properties": { "centroid_lon": 13.488348337567148, "centroid_lat": 52.582709637686314, "source": "OSM lakes" }, "geometry": { "type": "Point", "coordinates": [ 13.488348337567148, 52.582709637686314 ] } },
{ "type": "Feature", "properties": { "centroid_lon": 13.303014001706904, "centroid_lat": 52.643430850983776, "source": "OSM lakes" }, "geometry": { "type": "Point", "coordinates": [ 13.303014001706904, 52.643430850983776 ] } },
{ "type": "Feature", "properties": { "centroid_lon": 13.463586704802877, "centroid_lat": 52.554204194151438, "source": "OSM lakes" }, "geometry": { "type": "Point", "coordinates": [ 13.463586704802877, 52.554204194151438 ] } },
{ "type": "Feature", "properties": { "centroid_lon": 13.441962020870839, "centroid_lat": 52.474981854180228, "source": "OSM lakes" }, "geometry": { "type": "Point", "coordinates": [ 13.441962020870839, 52.474981854180228 ] } },
{ "type": "Feature", "properties": { "centroid_lon": 13.122555274321437, "centroid_lat": 52.401097068892767, "source": "OSM lakes" }, "geometry": { "type": "Point", "coordinates": [ 13.122555274321437, 52.401097068892767 ] } },
{ "type": "Feature", "properties": { "centroid_lon": 13.251844108463184, "centroid_lat": 52.511144445680557, "source": "OSM lakes" }, "geometry": { "type": "Point", "coordinates": [ 13.251844108463184, 52.511144445680557 ] } },
{ "type": "Feature", "properties": { "centroid_lon": 13.565916219165771, "centroid_lat": 52.434760629642291, "source": "OSM lakes" }, "geometry": { "type": "Point", "coordinates": [ 13.565916219165771, 52.434760629642291 ] } },
{ "type": "Feature", "properties": { "centroid_lon": 13.281985833223288, "centroid_lat": 52.635458639098978, "source": "OSM lakes" }, "geometry": { "type": "Point", "coordinates": [ 13.281985833223288, 52.635458639098978 ] } },
{ "type": "Feature", "properties": { "centroid_lon": 13.277215690539466, "centroid_lat": 52.635996159716242, "source": "OSM lakes" }, "geometry": { "type": "Point", "coordinates": [ 13.277215690539466, 52.635996159716242 ] } },
{ "type": "Feature", "properties": { "centroid_lon": 13.394039616345207, "centroid_lat": 52.441255782390108, "source": "OSM lakes" }, "geometry": { "type": "Point", "coordinates": [ 13.394039616345207, 52.441255782390108 ] } },
{ "type": "Feature", "properties": { "centroid_lon": 13.221743371377176, "centroid_lat": 52.615123458148567, "source": "OSM lakes" }, "geometry": { "type": "Point", "coordinates": [ 13.221743371377176, 52.615123458148567 ] } },
{ "type": "Feature", "properties": { "centroid_lon": 13.238341276243656, "centroid_lat": 52.446136047641794, "source": "OSM lakes" }, "geometry": { "type": "Point", "coordinates": [ 13.238341276243656, 52.446136047641794 ] } },
{ "type": "Feature", "properties": { "centroid_lon": 13.445441953140987, "centroid_lat": 52.567390127353811, "source": "OSM lakes" }, "geometry": { "type": "Point", "coordinates": [ 13.445441953140987, 52.567390127353811 ] } },
{ "type": "Feature", "properties": { "centroid_lon": 13.352636725639467, "centroid_lat": 52.451544794332378, "source": "OSM lakes" }, "geometry": { "type": "Point", "coordinates": [ 13.352636725639467, 52.451544794332378 ] } },
{ "type": "Feature", "properties": { "centroid_lon": 13.238821748405471, "centroid_lat": 52.469512591185342, "source": "OSM lakes" }, "geometry": { "type": "Point", "coordinates": [ 13.238821748405471, 52.469512591185342 ] } },
{ "type": "Feature", "properties": { "centroid_lon": 13.448613308770833, "centroid_lat": 52.448227022200264, "source": "OSM lakes" }, "geometry": { "type": "Point", "coordinates": [ 13.448613308770833, 52.448227022200264 ] } },
{ "type": "Feature", "properties": { "centroid_lon": 13.456595441788634, "centroid_lat": 52.554942809052157, "source": "OSM lakes" }, "geometry": { "type": "Point", "coordinates": [ 13.456595441788634, 52.554942809052157 ] } },
{ "type": "Feature", "properties": { "centroid_lon": 13.452744771397406, "centroid_lat": 52.55297872780509, "source": "OSM lakes" }, "geometry": { "type": "Point", "coordinates": [ 13.452744771397406, 52.55297872780509 ] } },
{ "type": "Feature", "properties": { "centroid_lon": 13.298535548347258, "centroid_lat": 52.631821079476843, "source": "OSM lakes" }, "geometry": { "type": "Point", "coordinates": [ 13.298535548347258, 52.631821079476843 ] } },
{ "type": "Feature", "properties": { "centroid_lon": 13.676172173180538, "centroid_lat": 52.429714361635959, "source": "OSM lakes" }, "geometry": { "type": "Point", "coordinates": [ 13.676172173180538, 52.429714361635959 ] } },
{ "type": "Feature", "properties": { "centroid_lon": 13.36929366617623, "centroid_lat": 52.459218229138749, "source": "OSM lakes" }, "geometry": { "type": "Point", "coordinates": [ 13.36929366617623, 52.459218229138749 ] } },
{ "type": "Feature", "properties": { "centroid_lon": 13.501131254149149, "centroid_lat": 52.417435415612339, "source": "OSM lakes" }, "geometry": { "type": "Point", "coordinates": [ 13.501131254149149, 52.417435415612339 ] } },
{ "type": "Feature", "properties": { "centroid_lon": 13.52048443768113, "centroid_lat": 52.422971504974008, "source": "OSM lakes" }, "geometry": { "type": "Point", "coordinates": [ 13.52048443768113, 52.422971504974008 ] } },
{ "type": "Feature", "properties": { "centroid_lon": 13.192368973086964, "centroid_lat": 52.424096923684246, "source": "OSM lakes" }, "geometry": { "type": "Point", "coordinates": [ 13.192368973086964, 52.424096923684246 ] } },
{ "type": "Feature", "properties": { "centroid_lon": 13.60202879108016, "centroid_lat": 52.49869322465134, "source": "OSM lakes" }, "geometry": { "type": "Point", "coordinates": [ 13.60202879108016, 52.49869322465134 ] } },
{ "type": "Feature", "properties": { "centroid_lon": -72.772278218395059, "centroid_lat": 41.630830909395215, "source": "OSM lakes" }, "geometry": { "type": "Point", "coordinates": [ -72.772278218395059, 41.630830909395215 ] } },
{ "type": "Feature", "properties": { "centroid_lon": -72.755594497680008, "centroid_lat": 41.62937051931771, "source": "OSM lakes" }, "geometry": { "type": "Point", "coordinates": [ -72.755594497680008, 41.62937051931771 ] } },
{ "type": "Feature", "properties": { "centroid_lon": 13.427840622922089, "centroid_lat": 52.441534987127845, "source": "OSM lakes" }, "geometry": { "type": "Point", "coordinates": [ 13.427840622922089, 52.441534987127845 ] } },
{ "type": "Feature", "properties": { "centroid_lon": 13.351709936245218, "centroid_lat": 52.518145647360775, "source": "OSM lakes" }, "geometry": { "type": "Point", "coordinates": [ 13.351709936245218, 52.518145647360775 ] } },
{ "type": "Feature", "properties": { "centroid_lon": 13.29459981043501, "centroid_lat": 52.621769967564553, "source": "OSM lakes" }, "geometry": { "type": "Point", "coordinates": [ 13.29459981043501, 52.621769967564553 ] } },
{ "type": "Feature", "properties": { "centroid_lon": 13.491611914203546, "centroid_lat": 52.410041849492913, "source": "OSM lakes" }, "geometry": { "type": "Point", "coordinates": [ 13.491611914203546, 52.410041849492913 ] } },
{ "type": "Feature", "properties": { "centroid_lon": 13.370021916089588, "centroid_lat": 52.584256000458012, "source": "OSM lakes" }, "geometry": { "type": "Point", "coordinates": [ 13.370021916089588, 52.584256000458012 ] } },
{ "type": "Feature", "properties": { "centroid_lon": 13.49319874812551, "centroid_lat": 52.410974374073788, "source": "OSM lakes" }, "geometry": { "type": "Point", "coordinates": [ 13.49319874812551, 52.410974374073788 ] } },
{ "type": "Feature", "properties": { "centroid_lon": 13.356648396398461, "centroid_lat": 52.44029691909661, "source": "OSM lakes" }, "geometry": { "type": "Point", "coordinates": [ 13.356648396398461, 52.44029691909661 ] } },
{ "type": "Feature", "properties": { "centroid_lon": 13.388824707827968, "centroid_lat": 52.442700055050949, "source": "OSM lakes" }, "geometry": { "type": "Point", "coordinates": [ 13.388824707827968, 52.442700055050949 ] } },
{ "type": "Feature", "properties": { "centroid_lon": 13.388936363057701, "centroid_lat": 52.442193275764772, "source": "OSM lakes" }, "geometry": { "type": "Point", "coordinates": [ 13.388936363057701, 52.442193275764772 ] } },
{ "type": "Feature", "properties": { "centroid_lon": 13.390142926585533, "centroid_lat": 52.441989944004362, "source": "OSM lakes" }, "geometry": { "type": "Point", "coordinates": [ 13.390142926585533, 52.441989944004362 ] } },
{ "type": "Feature", "properties": { "centroid_lon": 13.404093115370337, "centroid_lat": 52.43882245542607, "source": "OSM lakes" }, "geometry": { "type": "Point", "coordinates": [ 13.404093115370337, 52.43882245542607 ] } },
{ "type": "Feature", "properties": { "centroid_lon": 13.40625734473039, "centroid_lat": 52.440417556513339, "source": "OSM lakes" }, "geometry": { "type": "Point", "coordinates": [ 13.40625734473039, 52.440417556513339 ] } },
{ "type": "Feature", "properties": { "centroid_lon": 13.495494429252783, "centroid_lat": 52.418240424951883, "source": "OSM lakes" }, "geometry": { "type": "Point", "coordinates": [ 13.495494429252783, 52.418240424951883 ] } },
{ "type": "Feature", "properties": { "centroid_lon": 13.414460512618149, "centroid_lat": 52.376912479099012, "source": "OSM lakes" }, "geometry": { "type": "Point", "coordinates": [ 13.414460512618149, 52.376912479099012 ] } },
{ "type": "Feature", "properties": { "centroid_lon": 13.446013125970737, "centroid_lat": 52.45837795243375, "source": "OSM lakes" }, "geometry": { "type": "Point", "coordinates": [ 13.446013125970737, 52.45837795243375 ] } },
{ "type": "Feature", "properties": { "centroid_lon": 13.285889460315545, "centroid_lat": 52.644997811096559, "source": "OSM lakes" }, "geometry": { "type": "Point", "coordinates": [ 13.285889460315545, 52.644997811096559 ] } },
{ "type": "Feature", "properties": { "centroid_lon": 13.272488805897339, "centroid_lat": 52.635142062850299, "source": "OSM lakes" }, "geometry": { "type": "Point", "coordinates": [ 13.272488805897339, 52.635142062850299 ] } },
{ "type": "Feature", "properties": { "centroid_lon": 13.412625485133846, "centroid_lat": 52.423731873285142, "source": "OSM lakes" }, "geometry": { "type": "Point", "coordinates": [ 13.412625485133846, 52.423731873285142 ] } },
{ "type": "Feature", "properties": { "centroid_lon": 13.397987103179814, "centroid_lat": 52.439227195866977, "source": "OSM lakes" }, "geometry": { "type": "Point", "coordinates": [ 13.397987103179814, 52.439227195866977 ] } },
{ "type": "Feature", "properties": { "centroid_lon": -72.731350436322643, "centroid_lat": 41.643019749672568, "source": "OSM lakes" }, "geometry": { "type": "Point", "coordinates": [ -72.731350436322643, 41.643019749672568 ] } },
{ "type": "Feature", "properties": { "centroid_lon": 13.412055936378058, "centroid_lat": 52.482281309063936, "source": "OSM lakes" }, "geometry": { "type": "Point", "coordinates": [ 13.412055936378058, 52.482281309063936 ] } },
{ "type": "Feature", "properties": { "centroid_lon": -72.752376460307289, "centroid_lat": 41.638724955985843, "source": "OSM lakes" }, "geometry": { "type": "Point", "coordinates": [ -72.752376460307289, 41.638724955985843 ] } },
{ "type": "Feature", "properties": { "centroid_lon": -71.6308334193685, "centroid_lat": 42.357927588467696, "source": "OSM lakes" }, "geometry": { "type": "Point", "coordinates": [ -71.6308334193685, 42.357927588467696 ] } },
{ "type": "Feature", "properties": { "centroid_lon": 13.357372316546495, "centroid_lat": 52.44966000460186, "source": "OSM lakes" }, "geometry": { "type": "Point", "coordinates": [ 13.357372316546495, 52.44966000460186 ] } },
{ "type": "Feature", "properties": { "centroid_lon": 13.230840363774533, "centroid_lat": 52.49845237932054, "source": "OSM lakes" }, "geometry": { "type": "Point", "coordinates": [ 13.230840363774533, 52.49845237932054 ] } },
{ "type": "Feature", "properties": { "centroid_lon": 13.399647381780641, "centroid_lat": 52.439065968982597, "source": "OSM lakes" }, "geometry": { "type": "Point", "coordinates": [ 13.399647381780641, 52.439065968982597 ] } },
{ "type": "Feature", "properties": { "centroid_lon": 13.409563617834401, "centroid_lat": 52.435521147646163, "source": "OSM lakes" }, "geometry": { "type": "Point", "coordinates": [ 13.409563617834401, 52.435521147646163 ] } },
{ "type": "Feature", "properties": { "centroid_lon": 13.40883033661809, "centroid_lat": 52.435717337658133, "source": "OSM lakes" }, "geometry": { "type": "Point", "coordinates": [ 13.40883033661809, 52.435717337658133 ] } },
{ "type": "Feature", "properties": { "centroid_lon": 13.35026153779426, "centroid_lat": 52.452620324280531, "source": "OSM lakes" }, "geometry": { "type": "Point", "coordinates": [ 13.35026153779426, 52.452620324280531 ] } },
{ "type": "Feature", "properties": { "centroid_lon": 13.517685743221296, "centroid_lat": 52.405665654413035, "source": "OSM lakes" }, "geometry": { "type": "Point", "coordinates": [ 13.517685743221296, 52.405665654413035 ] } },
{ "type": "Feature", "properties": { "centroid_lon": 13.399684449825154, "centroid_lat": 52.518586147490751, "source": "OSM lakes" }, "geometry": { "type": "Point", "coordinates": [ 13.399684449825154, 52.518586147490751 ] } },
{ "type": "Feature", "properties": { "centroid_lon": 13.288089271705111, "centroid_lat": 52.641955240171086, "source": "OSM lakes" }, "geometry": { "type": "Point", "coordinates": [ 13.288089271705111, 52.641955240171086 ] } },
{ "type": "Feature", "properties": { "centroid_lon": 13.273767913437643, "centroid_lat": 52.638842050977892, "source": "OSM lakes" }, "geometry": { "type": "Point", "coordinates": [ 13.273767913437643, 52.638842050977892 ] } },
{ "type": "Feature", "properties": { "centroid_lon": 13.281825983997273, "centroid_lat": 52.640470151716919, "source": "OSM lakes" }, "geometry": { "type": "Point", "coordinates": [ 13.281825983997273, 52.640470151716919 ] } },
{ "type": "Feature", "properties": { "centroid_lon": 13.288871967172408, "centroid_lat": 52.638686422197821, "source": "OSM lakes" }, "geometry": { "type": "Point", "coordinates": [ 13.288871967172408, 52.638686422197821 ] } },
{ "type": "Feature", "properties": { "centroid_lon": 13.648328022996775, "centroid_lat": 52.437544279708348, "source": "OSM lakes" }, "geometry": { "type": "Point", "coordinates": [ 13.648328022996775, 52.437544279708348 ] } },
{ "type": "Feature", "properties": { "centroid_lon": 13.259918312790427, "centroid_lat": 52.470090677307887, "source": "OSM lakes" }, "geometry": { "type": "Point", "coordinates": [ 13.259918312790427, 52.470090677307887 ] } },
{ "type": "Feature", "properties": { "centroid_lon": 13.361931268669204, "centroid_lat": 52.402601611280296, "source": "OSM lakes" }, "geometry": { "type": "Point", "coordinates": [ 13.361931268669204, 52.402601611280296 ] } },
{ "type": "Feature", "properties": { "centroid_lon": -72.813078059489854, "centroid_lat": 41.571863671386787, "source": "OSM lakes" }, "geometry": { "type": "Point", "coordinates": [ -72.813078059489854, 41.571863671386787 ] } },
{ "type": "Feature", "properties": { "centroid_lon": -72.76840583492806, "centroid_lat": 41.601739894413136, "source": "OSM lakes" }, "geometry": { "type": "Point", "coordinates": [ -72.76840583492806, 41.601739894413136 ] } },
{ "type": "Feature", "properties": { "centroid_lon": 13.306199339775302, "centroid_lat": 52.606518229309437, "source": "OSM lakes" }, "geometry": { "type": "Point", "coordinates": [ 13.306199339775302, 52.606518229309437 ] } },
{ "type": "Feature", "properties": { "centroid_lon": 13.306657672053664, "centroid_lat": 52.606667271867536, "source": "OSM lakes" }, "geometry": { "type": "Point", "coordinates": [ 13.306657672053664, 52.606667271867536 ] } },
{ "type": "Feature", "properties": { "centroid_lon": 13.349059159726847, "centroid_lat": 52.580995041699211, "source": "OSM lakes" }, "geometry": { "type": "Point", "coordinates": [ 13.349059159726847, 52.580995041699211 ] } },
{ "type": "Feature", "properties": { "centroid_lon": 13.414193092758222, "centroid_lat": 52.441173832790163, "source": "OSM lakes" }, "geometry": { "type": "Point", "coordinates": [ 13.414193092758222, 52.441173832790163 ] } },
{ "type": "Feature", "properties": { "centroid_lon": 13.408815183617795, "centroid_lat": 52.445744758697238, "source": "OSM lakes" }, "geometry": { "type": "Point", "coordinates": [ 13.408815183617795, 52.445744758697238 ] } },
{ "type": "Feature", "properties": { "centroid_lon": 13.614603017594204, "centroid_lat": 52.514200023414148, "source": "OSM lakes" }, "geometry": { "type": "Point", "coordinates": [ 13.614603017594204, 52.514200023414148 ] } },
{ "type": "Feature", "properties": { "centroid_lon": 13.316806632986248, "centroid_lat": 52.407220225640998, "source": "OSM lakes" }, "geometry": { "type": "Point", "coordinates": [ 13.316806632986248, 52.407220225640998 ] } },
{ "type": "Feature", "properties": { "centroid_lon": 13.529011318089159, "centroid_lat": 52.498799711078242, "source": "OSM lakes" }, "geometry": { "type": "Point", "coordinates": [ 13.529011318089159, 52.498799711078242 ] } },
{ "type": "Feature", "properties": { "centroid_lon": 13.433918722369718, "centroid_lat": 52.449818824190011, "source": "OSM lakes" }, "geometry": { "type": "Point", "coordinates": [ 13.433918722369718, 52.449818824190011 ] } },
{ "type": "Feature", "properties": { "centroid_lon": 13.433568149219028, "centroid_lat": 52.4485570090255, "source": "OSM lakes" }, "geometry": { "type": "Point", "coordinates": [ 13.433568149219028, 52.4485570090255 ] } },
{ "type": "Feature", "properties": { "centroid_lon": -72.789418267465308, "centroid_lat": 41.598789903138098, "source": "OSM lakes" }, "geometry": { "type": "Point", "coordinates": [ -72.789418267465308, 41.598789903138098 ] } },
{ "type": "Feature", "properties": { "centroid_lon": 13.517308727976296, "centroid_lat": 52.419695630639211, "source": "OSM lakes" }, "geometry": { "type": "Point", "coordinates": [ 13.517308727976296, 52.419695630639211 ] } },
{ "type": "Feature", "properties": { "centroid_lon": 13.436225386087854, "centroid_lat": 52.606650812221886, "source": "OSM lakes" }, "geometry": { "type": "Point", "coordinates": [ 13.436225386087854, 52.606650812221886 ] } },
{ "type": "Feature", "properties": { "centroid_lon": 13.243742524693417, "centroid_lat": 52.5227829742959, "source": "OSM lakes" }, "geometry": { "type": "Point", "coordinates": [ 13.243742524693417, 52.5227829742959 ] } },
{ "type": "Feature", "properties": { "centroid_lon": 13.491823640419817, "centroid_lat": 52.561202313478077, "source": "OSM lakes" }, "geometry": { "type": "Point", "coordinates": [ 13.491823640419817, 52.561202313478077 ] } },
{ "type": "Feature", "properties": { "centroid_lon": 13.387001439282624, "centroid_lat": 52.389335037685171, "source": "OSM lakes" }, "geometry": { "type": "Point", "coordinates": [ 13.387001439282624, 52.389335037685171 ] } },
{ "type": "Feature", "properties": { "centroid_lon": 13.49507149618514, "centroid_lat": 52.60377693586004, "source": "OSM lakes" }, "geometry": { "type": "Point", "coordinates": [ 13.49507149618514, 52.60377693586004 ] } },
{ "type": "Feature", "properties": { "centroid_lon": 13.312687317775609, "centroid_lat": 52.611860798464051, "source": "OSM lakes" }, "geometry": { "type": "Point", "coordinates": [ 13.312687317775609, 52.611860798464051 ] } },
{ "type": "Feature", "properties": { "centroid_lon": 13.312192497113642, "centroid_lat": 52.611883643693211, "source": "OSM lakes" }, "geometry": { "type": "Point", "coordinates": [ 13.312192497113642, 52.611883643693211 ] } },
{ "type": "Feature", "properties": { "centroid_lon": 13.20113683675654, "centroid_lat": 52.571923909625148, "source": "OSM lakes" }, "geometry": { "type": "Point", "coordinates": [ 13.20113683675654, 52.571923909625148 ] } },
{ "type": "Feature", "properties": { "centroid_lon": 13.327721880525434, "centroid_lat": 52.594518813056531, "source": "OSM lakes" }, "geometry": { "type": "Point", "coordinates": [ 13.327721880525434, 52.594518813056531 ] } },
{ "type": "Feature", "properties": { "centroid_lon": 13.097438487320217, "centroid_lat": 52.414442770129448, "source": "OSM lakes" }, "geometry": { "type": "Point", "coordinates": [ 13.097438487320217, 52.414442770129448 ] } },
{ "type": "Feature", "properties": { "centroid_lon": 13.298466001109842, "centroid_lat": 52.640072870462802, "source": "OSM lakes" }, "geometry": { "type": "Point", "coordinates": [ 13.298466001109842, 52.640072870462802 ] } },
{ "type": "Feature", "properties": { "centroid_lon": 13.464900291403936, "centroid_lat": 52.614433756800921, "source": "OSM lakes" }, "geometry": { "type": "Point", "coordinates": [ 13.464900291403936, 52.614433756800921 ] } },
{ "type": "Feature", "properties": { "centroid_lon": 13.487229628706332, "centroid_lat": 52.585460451698083, "source": "OSM lakes" }, "geometry": { "type": "Point", "coordinates": [ 13.487229628706332, 52.585460451698083 ] } },
{ "type": "Feature", "properties": { "centroid_lon": 13.313495576034656, "centroid_lat": 52.624346290614469, "source": "OSM lakes" }, "geometry": { "type": "Point", "coordinates": [ 13.313495576034656, 52.624346290614469 ] } },
{ "type": "Feature", "properties": { "centroid_lon": 13.438847826751614, "centroid_lat": 52.604631856297587, "source": "OSM lakes" }, "geometry": { "type": "Point", "coordinates": [ 13.438847826751614, 52.604631856297587 ] } },
{ "type": "Feature", "properties": { "centroid_lon": 13.461152639711113, "centroid_lat": 52.62418355899262, "source": "OSM lakes" }, "geometry": { "type": "Point", "coordinates": [ 13.461152639711113, 52.62418355899262 ] } },
{ "type": "Feature", "properties": { "centroid_lon": 13.492630916055766, "centroid_lat": 52.649056183422083, "source": "OSM lakes" }, "geometry": { "type": "Point", "coordinates": [ 13.492630916055766, 52.649056183422083 ] } },
{ "type": "Feature", "properties": { "centroid_lon": 13.32540028848881, "centroid_lat": 52.595584422182341, "source": "OSM lakes" }, "geometry": { "type": "Point", "coordinates": [ 13.32540028848881, 52.595584422182341 ] } },
{ "type": "Feature", "properties": { "centroid_lon": 13.51477598223112, "centroid_lat": 52.575224972062635, "source": "OSM lakes" }, "geometry": { "type": "Point", "coordinates": [ 13.51477598223112, 52.575224972062635 ] } },
{ "type": "Feature", "properties": { "centroid_lon": 13.331146161015168, "centroid_lat": 52.576179778542425, "source": "OSM lakes" }, "geometry": { "type": "Point", "coordinates": [ 13.331146161015168, 52.576179778542425 ] } },
{ "type": "Feature", "properties": { "centroid_lon": 13.186668740578058, "centroid_lat": 52.569136583453997, "source": "OSM lakes" }, "geometry": { "type": "Point", "coordinates": [ 13.186668740578058, 52.569136583453997 ] } },
{ "type": "Feature", "properties": { "centroid_lon": -72.760266434313507, "centroid_lat": 41.646048203091937, "source": "OSM lakes" }, "geometry": { "type": "Point", "coordinates": [ -72.760266434313507, 41.646048203091937 ] } },
{ "type": "Feature", "properties": { "centroid_lon": -72.743753306314716, "centroid_lat": 41.609571969196566, "source": "OSM lakes" }, "geometry": { "type": "Point", "coordinates": [ -72.743753306314716, 41.609571969196566 ] } },
{ "type": "Feature", "properties": { "centroid_lon": 13.441889525396794, "centroid_lat": 52.475143531758583, "source": "OSM lakes" }, "geometry": { "type": "Point", "coordinates": [ 13.441889525396794, 52.475143531758583 ] } },
{ "type": "Feature", "properties": { "centroid_lon": 13.299370239113266, "centroid_lat": 52.453346933960823, "source": "OSM lakes" }, "geometry": { "type": "Point", "coordinates": [ 13.299370239113266, 52.453346933960823 ] } },
{ "type": "Feature", "properties": { "centroid_lon": 13.28719554948171, "centroid_lat": 52.465566534463328, "source": "OSM lakes" }, "geometry": { "type": "Point", "coordinates": [ 13.28719554948171, 52.465566534463328 ] } },
{ "type": "Feature", "properties": { "centroid_lon": 13.485958060366018, "centroid_lat": 52.454878383386585, "source": "OSM lakes" }, "geometry": { "type": "Point", "coordinates": [ 13.485958060366018, 52.454878383386585 ] } },
{ "type": "Feature", "properties": { "centroid_lon": 13.304654280522897, "centroid_lat": 52.455862670858252, "source": "OSM lakes" }, "geometry": { "type": "Point", "coordinates": [ 13.304654280522897, 52.455862670858252 ] } },
{ "type": "Feature", "properties": { "centroid_lon": 13.308758153145527, "centroid_lat": 52.452018025663179, "source": "OSM lakes" }, "geometry": { "type": "Point", "coordinates": [ 13.308758153145527, 52.452018025663179 ] } },
{ "type": "Feature", "properties": { "centroid_lon": 13.147303400151085, "centroid_lat": 52.396544819418288, "source": "OSM lakes" }, "geometry": { "type": "Point", "coordinates": [ 13.147303400151085, 52.396544819418288 ] } },
{ "type": "Feature", "properties": { "centroid_lon": 13.34277843148746, "centroid_lat": 52.414273662684778, "source": "OSM lakes" }, "geometry": { "type": "Point", "coordinates": [ 13.34277843148746, 52.414273662684778 ] } },
{ "type": "Feature", "properties": { "centroid_lon": -72.742276319797284, "centroid_lat": 41.634916941399403, "source": "OSM lakes" }, "geometry": { "type": "Point", "coordinates": [ -72.742276319797284, 41.634916941399403 ] } },
{ "type": "Feature", "properties": { "centroid_lon": 13.228270392175316, "centroid_lat": 52.621413754723157, "source": "OSM lakes" }, "geometry": { "type": "Point", "coordinates": [ 13.228270392175316, 52.621413754723157 ] } },
{ "type": "Feature", "properties": { "centroid_lon": 13.621085089251002, "centroid_lat": 52.525418075928293, "source": "OSM lakes" }, "geometry": { "type": "Point", "coordinates": [ 13.621085089251002, 52.525418075928293 ] } },
{ "type": "Feature", "properties": { "centroid_lon": 13.21383267241292, "centroid_lat": 52.586961619044111, "source": "OSM lakes" }, "geometry": { "type": "Point", "coordinates": [ 13.21383267241292, 52.586961619044111 ] } },
{ "type": "Feature", "properties": { "centroid_lon": -72.82330066153034, "centroid_lat": 41.569269149784667, "source": "OSM lakes" }, "geometry": { "type": "Point", "coordinates": [ -72.82330066153034, 41.569269149784667 ] } },
{ "type": "Feature", "properties": { "centroid_lon": 13.478128989722372, "centroid_lat": 52.513749750428488, "source": "OSM lakes" }, "geometry": { "type": "Point", "coordinates": [ 13.478128989722372, 52.513749750428488 ] } },
{ "type": "Feature", "properties": { "centroid_lon": 13.129654966774222, "centroid_lat": 52.439478175059683, "source": "OSM lakes" }, "geometry": { "type": "Point", "coordinates": [ 13.129654966774222, 52.439478175059683 ] } },
{ "type": "Feature", "properties": { "centroid_lon": 13.132966872834697, "centroid_lat": 52.439210439237407, "source": "OSM lakes" }, "geometry": { "type": "Point", "coordinates": [ 13.132966872834697, 52.439210439237407 ] } },
{ "type": "Feature", "properties": { "centroid_lon": 13.127399663976451, "centroid_lat": 52.432840903737024, "source": "OSM lakes" }, "geometry": { "type": "Point", "coordinates": [ 13.127399663976451, 52.432840903737024 ] } },
{ "type": "Feature", "properties": { "centroid_lon": 13.13421158282701, "centroid_lat": 52.433330487408959, "source": "OSM lakes" }, "geometry": { "type": "Point", "coordinates": [ 13.13421158282701, 52.433330487408959 ] } },
{ "type": "Feature", "properties": { "centroid_lon": 13.537013772063393, "centroid_lat": 52.582508026554812, "source": "OSM lakes" }, "geometry": { "type": "Point", "coordinates": [ 13.537013772063393, 52.582508026554812 ] } },
{ "type": "Feature", "properties": { "centroid_lon": -72.764250540773745, "centroid_lat": 41.641190607766809, "source": "OSM lakes" }, "geometry": { "type": "Point", "coordinates": [ -72.764250540773745, 41.641190607766809 ] } },
{ "type": "Feature", "properties": { "centroid_lon": -71.673458694632487, "centroid_lat": 42.393124515870994, "source": "OSM lakes" }, "geometry": { "type": "Point", "coordinates": [ -71.673458694632487, 42.393124515870994 ] } },
{ "type": "Feature", "properties": { "centroid_lon": 13.313435639734491, "centroid_lat": 52.548992128355728, "source": "OSM lakes" }, "geometry": { "type": "Point", "coordinates": [ 13.313435639734491, 52.548992128355728 ] } },
{ "type": "Feature", "properties": { "centroid_lon": 13.480945973787184, "centroid_lat": 52.577239277689131, "source": "OSM lakes" }, "geometry": { "type": "Point", "coordinates": [ 13.480945973787184, 52.577239277689131 ] } },
{ "type": "Feature", "properties": { "centroid_lon": 13.534475559992041, "centroid_lat": 52.563288360893914, "source": "OSM lakes" }, "geometry": { "type": "Point", "coordinates": [ 13.534475559992041, 52.563288360893914 ] } },
{ "type": "Feature", "properties": { "centroid_lon": 13.721509044909231, "centroid_lat": 52.427940637534128, "source": "OSM lakes" }, "geometry": { "type": "Point", "coordinates": [ 13.721509044909231, 52.427940637534128 ] } },
{ "type": "Feature", "properties": { "centroid_lon": 13.285185957561811, "centroid_lat": 52.432969481726808, "source": "OSM lakes" }, "geometry": { "type": "Point", "coordinates": [ 13.285185957561811, 52.432969481726808 ] } },
{ "type": "Feature", "properties": { "centroid_lon": 13.205465764294413, "centroid_lat": 52.426423887387749, "source": "OSM lakes" }, "geometry": { "type": "Point", "coordinates": [ 13.205465764294413, 52.426423887387749 ] } },
{ "type": "Feature", "properties": { "centroid_lon": 13.28284697174778, "centroid_lat": 52.542785215042656, "source": "OSM lakes" }, "geometry": { "type": "Point", "coordinates": [ 13.28284697174778, 52.542785215042656 ] } },
{ "type": "Feature", "properties": { "centroid_lon": 13.332453583759641, "centroid_lat": 52.589265998020629, "source": "OSM lakes" }, "geometry": { "type": "Point", "coordinates": [ 13.332453583759641, 52.589265998020629 ] } }
]
}
