{
"type": "FeatureCollection",
"name": "coworking_centers",
"crs": { "type": "name", "properties": { "name": "urn:ogc:def:crs:OGC:1.3:CRS84" } },
"features": [
{ "type": "Feature", "properties": { "element": "node", "id": 330264334, "name": "St. Oberholz", "street": "Rosenthaler Straße", "housenumber": "72", "postcode": "10119", "city": "Berlin", "country": "DE", "suburb": "Mitte", "opening_hours": "Mo-Th 08:00-24:00, Fr 08:00-03:00, Sa 09:00-03:00, Su 09:00-24:00", "internet_access": "wlan", "wheelchair": "limited", "phone": "+49 30 24085586", "email": "info@sanktoberholz.de", "website": "https://sanktoberholz.de/standorte/rosenthaler/", "latitude": 52.5295304, "longitude": 13.4017825 }, "geometry": { "type": "Point", "coordinates": [ 13.4017825, 52.5295304 ] } },
{ "type": "Feature", "properties": { "element": "node", "id": 459659033, "name": "unknown", "street": "Ella-Kay-Straße", "housenumber": "38", "postcode": "10405", "city": "Berlin", "country": "unknown", "suburb": "Prenzlauer Berg", "opening_hours": "unknown", "internet_access": "unknown", "wheelchair": "unknown", "phone": "unknown", "email": "unknown", "website": "unknown", "latitude": 52.5401654, "longitude": 13.4328014 }, "geometry": { "type": "Point", "coordinates": [ 13.4328014, 52.5401654 ] } },
{ "type": "Feature", "properties": { "element": "node", "id": 1776155022, "name": "Pulsraum Coworking Berlin", "street": "Kottbusser Damm", "housenumber": "25", "postcode": "10967", "city": "Berlin", "country": "DE", "suburb": "Kreuzberg", "opening_hours": "Mo-Fr 07:00-21:00; Sa 10:00-19:00", "internet_access": "wlan", "wheelchair": "unknown", "phone": "unknown", "email": "unknown", "website": "unknown", "latitude": 52.4896345, "longitude": 13.4238697 }, "geometry": { "type": "Point", "coordinates": [ 13.4238697, 52.4896345 ] } },
{ "type": "Feature", "properties": { "element": "node", "id": 1827346141, "name": "Fora", "street": "Unter den Linden", "housenumber": "40", "postcode": "10117", "city": "Berlin", "country": "DE", "suburb": "Mitte", "opening_hours": "unknown", "internet_access": "unknown", "wheelchair": "unknown", "phone": "unknown", "email": "unknown", "website": "unknown", "latitude": 52.5171592, "longitude": 13.3864434 }, "geometry": { "type": "Point", "coordinates": [ 13.3864434, 52.5171592 ] } },
{ "type": "Feature", "properties": { "element": "node", "id": 2181178532, "name": "Hauptstadt Räume", "street": "Kochstraße", "housenumber": "", "postcode": "10969", "city": "Berlin", "country": "unknown", "suburb": "Kreuzberg", "opening_hours": "unknown", "internet_access": "unknown", "wheelchair": "unknown", "phone": "unknown", "email": "unknown", "website": "unknown", "latitude": 52.5065941, "longitude": 13.3870843 }, "geometry": { "type": "Point", "coordinates": [ 13.3870843, 52.5065941 ] } },
{ "type": "Feature", "properties": { "element": "node", "id": 2438936747, "name": "Salon 31 Friseur", "street": "Gärtnerstraße", "housenumber": "31", "postcode": "10245", "city": "Berlin", "country": "DE", "suburb": "Friedrichshain", "opening_hours": "We-Fr 10:00-20:00; Sa 10:00-18:00", "internet_access": "unknown", "wheelchair": "no", "phone": "unknown", "email": "unknown", "website": "unknown", "latitude": 52.5087141, "longitude": 13.4596825 }, "geometry": { "type": "Point", "coordinates": [ 13.4596825, 52.5087141 ] } },
{ "type": "Feature", "properties": { "element": "node", "id": 2611823098, "name": "Charlottenburger Innovations-Centrum", "street": "Marie-Elisabeth-Lüders-Straße", "housenumber": "1", "postcode": "10625", "city": "Berlin", "country": "DE", "suburb": "Charlottenburg", "opening_hours": "unknown", "internet_access": "unknown", "wheelchair": "unknown", "phone": "unknown", "email": "unknown", "website": "https://charlottenburg.wista.de", "latitude": 52.5129406, "longitude": 13.3167085 }, "geometry": { "type": "Point", "coordinates": [ 13.3167085, 52.5129406 ] } },
{ "type": "Feature", "properties": { "element": "node", "id": 2641068367, "name": "Coworking Space Berlin-Friedrichshain Launch/Co", "street": "Rudolfstraße", "housenumber": "14", "postcode": "10245", "city": "Berlin", "country": "DE", "suburb": "Friedrichshain", "opening_hours": "Mo-Fr 09:00-19:00", "internet_access": "unknown", "wheelchair": "limited", "phone": "+4930577000050", "email": "unknown", "website": "https://launchco.com/coworking", "latitude": 52.5036356, "longitude": 13.454467 }, "geometry": { "type": "Point", "coordinates": [ 13.454467, 52.5036356 ] } },
{ "type": "Feature", "properties": { "element": "node", "id": 2821522839, "name": "CubicMeter", "street": "Rodenbergstraße", "housenumber": "29", "postcode": "10439", "city": "Berlin", "country": "DE", "suburb": "Prenzlauer Berg", "opening_hours": "unknown", "internet_access": "unknown", "wheelchair": "unknown", "phone": "unknown", "email": "unknown", "website": "unknown", "latitude": 52.5506682, "longitude": 13.4181026 }, "geometry": { "type": "Point", "coordinates": [ 13.4181026, 52.5506682 ] } },
{ "type": "Feature", "properties": { "element": "node", "id": 3907015302, "name": "Horse Space", "street": "Revaler Straße", "housenumber": "1", "postcode": "10243", "city": "Berlin", "country": "DE", "suburb": "Friedrichshain", "opening_hours": "unknown", "internet_access": "unknown", "wheelchair": "no", "phone": "unknown", "email": "unknown", "website": "unknown", "latitude": 52.5085075, "longitude": 13.4491643 }, "geometry": { "type": "Point", "coordinates": [ 13.4491643, 52.5085075 ] } },
{ "type": "Feature", "properties": { "element": "node", "id": 4231573654, "name": "Haus des Holzes", "street": "Chausseestraße", "housenumber": "99", "postcode": "10115", "city": "Berlin", "country": "unknown", "suburb": "Mitte", "opening_hours": "unknown", "internet_access": "unknown", "wheelchair": "unknown", "phone": "unknown", "email": "unknown", "website": "unknown", "latitude": 52.5325842, "longitude": 13.3801872 }, "geometry": { "type": "Point", "coordinates": [ 13.3801872, 52.5325842 ] } },
{ "type": "Feature", "properties": { "element": "node", "id": 4304290490, "name": "Juicy Fields", "street": "Potsdamer Straße", "housenumber": "147", "postcode": "10783", "city": "Berlin", "country": "unknown", "suburb": "Schöneberg", "opening_hours": "Mo-Fr 10:00-20:00; Sa-Su 10:00-18:00", "internet_access": "unknown", "wheelchair": "unknown", "phone": "unknown", "email": "unknown", "website": "unknown", "latitude": 52.4960192, "longitude": 13.361546 }, "geometry": { "type": "Point", "coordinates": [ 13.361546, 52.4960192 ] } },
{ "type": "Feature", "properties": { "element": "node", "id": 4335662634, "name": "Leap - Quantum Technology Hub Berlin", "street": "Rudower Chaussee", "housenumber": "29", "postcode": "12489", "city": "Berlin", "country": "unknown", "suburb": "Adlershof", "opening_hours": "unknown", "internet_access": "yes", "wheelchair": "unknown", "phone": "unknown", "email": "unknown", "website": "unknown", "latitude": 52.4287643, "longitude": 13.5285457 }, "geometry": { "type": "Point", "coordinates": [ 13.5285457, 52.4287643 ] } },
{ "type": "Feature", "properties": { "element": "node", "id": 4369496897, "name": "enpact", "street": "Stresemannstraße", "housenumber": "", "postcode": "10963", "city": "Berlin", "country": "unknown", "suburb": "Kreuzberg", "opening_hours": "unknown", "internet_access": "unknown", "wheelchair": "unknown", "phone": "unknown", "email": "unknown", "website": "unknown", "latitude": 52.5017276, "longitude": 13.3862771 }, "geometry": { "type": "Point", "coordinates": [ 13.3862771, 52.5017276 ] } },
{ "type": "Feature", "properties": { "element": "node", "id": 4521146463, "name": "Spielfield Digital Hub", "street": "Skalitzer Straße", "housenumber": "85", "postcode": "10997", "city": "Berlin", "country": "DE", "suburb": "Kreuzberg", "opening_hours": "unknown", "internet_access": "unknown", "wheelchair": "unknown", "phone": "unknown", "email": "unknown", "website": "https://www.spielfeld.com/", "latitude": 52.5003367, "longitude": 13.4363455 }, "geometry": { "type": "Point", "coordinates": [ 13.4363455, 52.5003367 ] } },
{ "type": "Feature", "properties": { "element": "node", "id": 4555960190, "name": "Blogfabrik", "street": "Oranienstraße", "housenumber": "185", "postcode": "10999", "city": "Berlin", "country": "unknown", "suburb": "Kreuzberg", "opening_hours": "unknown", "internet_access": "unknown", "wheelchair": "yes", "phone": "unknown", "email": "unknown", "website": "unknown", "latitude": 52.5006748, "longitude": 13.4210136 }, "geometry": { "type": "Point", "coordinates": [ 13.4210136, 52.5006748 ] } },
{ "type": "Feature", "properties": { "element": "node", "id": 4729031305, "name": "Tuechtig", "street": "Oudenarder Straße", "housenumber": "16", "postcode": "13347", "city": "Berlin", "country": "DE", "suburb": "Wedding", "opening_hours": "09:00-19:00", "internet_access": "wlan", "wheelchair": "yes", "phone": "+49 30 83216640", "email": "unknown", "website": "https://tuechtig-berlin.de/", "latitude": 52.5533166, "longitude": 13.3596927 }, "geometry": { "type": "Point", "coordinates": [ 13.3596927, 52.5533166 ] } },
{ "type": "Feature", "properties": { "element": "node", "id": 4834413722, "name": "Mitosis", "street": "Weserstraße", "housenumber": "165", "postcode": "12045", "city": "Berlin", "country": "DE", "suburb": "Neukölln", "opening_hours": "unknown", "internet_access": "unknown", "wheelchair": "unknown", "phone": "unknown", "email": "unknown", "website": "unknown", "latitude": 52.4833039, "longitude": 13.4413146 }, "geometry": { "type": "Point", "coordinates": [ 13.4413146, 52.4833039 ] } },
{ "type": "Feature", "properties": { "element": "node", "id": 4852664721, "name": "St. Oberholz Zehdenicker", "street": "Zehdenicker Straße", "housenumber": "1", "postcode": "10119", "city": "Berlin", "country": "unknown", "suburb": "Prenzlauer Berg", "opening_hours": "Mo-Fr 08:00-18:00; Sa-Su 10:00-16:00", "internet_access": "wlan", "wheelchair": "no", "phone": "unknown", "email": "info@sanktoberholz.de", "website": "https://sanktoberholz.de/standorte/zehdenicker/", "latitude": 52.529775, "longitude": 13.4074888 }, "geometry": { "type": "Point", "coordinates": [ 13.4074888, 52.529775 ] } },
{ "type": "Feature", "properties": { "element": "node", "id": 4911485902, "name": "Die Zusammenarbeiter", "street": "Wilhelmine-Gemberg-Weg", "housenumber": "14", "postcode": "10179", "city": "Berlin", "country": "DE", "suburb": "Mitte", "opening_hours": "unknown", "internet_access": "yes", "wheelchair": "yes", "phone": "unknown", "email": "unknown", "website": "unknown", "latitude": 52.5103479, "longitude": 13.425172 }, "geometry": { "type": "Point", "coordinates": [ 13.425172, 52.5103479 ] } },
{ "type": "Feature", "properties": { "element": "node", "id": 5114809304, "name": "Nest Coworking", "street": "Görlitzer Straße", "housenumber": "52", "postcode": "10997", "city": "Berlin", "country": "unknown", "suburb": "Kreuzberg", "opening_hours": "Th-Su 11:00-22:00", "internet_access": "wlan", "wheelchair": "unknown", "phone": "unknown", "email": "unknown", "website": "unknown", "latitude": 52.4971588, "longitude": 13.4391399 }, "geometry": { "type": "Point", "coordinates": [ 13.4391399, 52.4971588 ] } },
{ "type": "Feature", "properties": { "element": "node", "id": 5132646598, "name": "Impact Hub", "street": "Rollbergstraße", "housenumber": "28A", "postcode": "12053", "city": "Berlin", "country": "DE", "suburb": "Neukölln", "opening_hours": "Mo-Fr 09:00-18:00", "internet_access": "unknown", "wheelchair": "unknown", "phone": "+49 30 25925725", "email": "info@impacthub.berlin", "website": "https://berlin.impacthub.net", "latitude": 52.4791786, "longitude": 13.4322498 }, "geometry": { "type": "Point", "coordinates": [ 13.4322498, 52.4791786 ] } },
{ "type": "Feature", "properties": { "element": "node", "id": 5151420230, "name": "WeWork", "street": "Kemperplatz", "housenumber": "1", "postcode": "10785", "city": "Berlin", "country": "DE", "suburb": "Tiergarten", "opening_hours": "unknown", "internet_access": "unknown", "wheelchair": "unknown", "phone": "unknown", "email": "unknown", "website": "unknown", "latitude": 52.5108391, "longitude": 13.3718204 }, "geometry": { "type": "Point", "coordinates": [ 13.3718204, 52.5108391 ] } },
{ "type": "Feature", "properties": { "element": "node", "id": 5296060608, "name": "Excellent Business Center", "street": "Europaplatz", "housenumber": "2", "postcode": "10557", "city": "Berlin", "country": "DE", "suburb": "Moabit", "opening_hours": "unknown", "internet_access": "unknown", "wheelchair": "unknown", "phone": "unknown", "email": "unknown", "website": "unknown", "latitude": 52.5255276, "longitude": 13.3695902 }, "geometry": { "type": "Point", "coordinates": [ 13.3695902, 52.5255276 ] } },
{ "type": "Feature", "properties": { "element": "node", "id": 5333707421, "name": "WeWork", "street": "Stresemannstraße", "housenumber": "123", "postcode": "10963", "city": "Berlin", "country": "DE", "suburb": "Kreuzberg", "opening_hours": "unknown", "internet_access": "unknown", "wheelchair": "yes", "phone": "unknown", "email": "unknown", "website": "unknown", "latitude": 52.5074111, "longitude": 13.3782525 }, "geometry": { "type": "Point", "coordinates": [ 13.3782525, 52.5074111 ] } },
{ "type": "Feature", "properties": { "element": "node", "id": 5333707422, "name": "WeWork", "street": "Eichhornstraße", "housenumber": "3", "postcode": "10785", "city": "Berlin", "country": "DE", "suburb": "Tiergarten", "opening_hours": "unknown", "internet_access": "unknown", "wheelchair": "unknown", "phone": "unknown", "email": "unknown", "website": "unknown", "latitude": 52.5063847, "longitude": 13.3731454 }, "geometry": { "type": "Point", "coordinates": [ 13.3731454, 52.5063847 ] } },
{ "type": "Feature", "properties": { "element": "node", "id": 5333707423, "name": "WeWork", "street": "Kurfürstendamm", "housenumber": "11", "postcode": "10719", "city": "Berlin", "country": "DE", "suburb": "Tiergarten", "opening_hours": "unknown", "internet_access": "wlan", "wheelchair": "unknown", "phone": "unknown", "email": "unknown", "website": "unknown", "latitude": 52.5046435, "longitude": 13.3338036 }, "geometry": { "type": "Point", "coordinates": [ 13.3338036, 52.5046435 ] } },
{ "type": "Feature", "properties": { "element": "node", "id": 5682297284, "name": "The Place", "street": "Charlottenstraße", "housenumber": "2", "postcode": "10969", "city": "Berlin", "country": "DE", "suburb": "Kreuzberg", "opening_hours": "Mo-Fr 08:30-23:00", "internet_access": "yes", "wheelchair": "yes", "phone": "unknown", "email": "unknown", "website": "http://www.theplaceberlin.com/", "latitude": 52.5057457, "longitude": 13.393114 }, "geometry": { "type": "Point", "coordinates": [ 13.393114, 52.5057457 ] } },
{ "type": "Feature", "properties": { "element": "node", "id": 5815718376, "name": "unknown", "street": "Tauentzienstraße", "housenumber": "13", "postcode": "10789", "city": "Berlin", "country": "unknown", "suburb": "Charlottenburg", "opening_hours": "Mo-Fr 09:00-17:00", "internet_access": "wlan", "wheelchair": "unknown", "phone": "unknown", "email": "unknown", "website": "unknown", "latitude": 52.5039784, "longitude": 13.3362493 }, "geometry": { "type": "Point", "coordinates": [ 13.3362493, 52.5039784 ] } },
{ "type": "Feature", "properties": { "element": "node", "id": 5879016218, "name": "tuesday coworking", "street": "Belziger Straße", "housenumber": "69/71", "postcode": "10823", "city": "Berlin", "country": "unknown", "suburb": "Schöneberg", "opening_hours": "unknown", "internet_access": "yes", "wheelchair": "unknown", "phone": "unknown", "email": "unknown", "website": "unknown", "latitude": 52.4845786, "longitude": 13.3466833 }, "geometry": { "type": "Point", "coordinates": [ 13.3466833, 52.4845786 ] } },
{ "type": "Feature", "properties": { "element": "node", "id": 5879030827, "name": "tuesday coworking", "street": "Feurigstraße", "housenumber": "51", "postcode": "10827", "city": "Berlin", "country": "unknown", "suburb": "Schöneberg", "opening_hours": "unknown", "internet_access": "yes", "wheelchair": "unknown", "phone": "unknown", "email": "unknown", "website": "unknown", "latitude": 52.483058, "longitude": 13.3537444 }, "geometry": { "type": "Point", "coordinates": [ 13.3537444, 52.483058 ] } },
{ "type": "Feature", "properties": { "element": "node", "id": 5902100719, "name": "Altmoabit 19", "street": "Alt-Moabit", "housenumber": "19", "postcode": "10559", "city": "Berlin", "country": "DE", "suburb": "Moabit", "opening_hours": "unknown", "internet_access": "unknown", "wheelchair": "unknown", "phone": "+49 30 44678075", "email": "buero@altmoabit19.com", "website": "https://www.altmoabit19.com", "latitude": 52.5248113, "longitude": 13.352327 }, "geometry": { "type": "Point", "coordinates": [ 13.352327, 52.5248113 ] } },
{ "type": "Feature", "properties": { "element": "node", "id": 5954877929, "name": "Simplioffice", "street": "Nürnberger Straße", "housenumber": "38", "postcode": "10777", "city": "Berlin", "country": "DE", "suburb": "Wilmersdorf", "opening_hours": "unknown", "internet_access": "unknown", "wheelchair": "limited", "phone": "+49 30 890070", "email": "info@commehr.de", "website": "http://www.commehr.de", "latitude": 52.4989306, "longitude": 13.335409 }, "geometry": { "type": "Point", "coordinates": [ 13.335409, 52.4989306 ] } },
{ "type": "Feature", "properties": { "element": "node", "id": 6109295929, "name": "Der Salon Coworking", "street": "Schudomastraße", "housenumber": "45", "postcode": "12055", "city": "Berlin", "country": "DE", "suburb": "Neukölln", "opening_hours": "unknown", "internet_access": "unknown", "wheelchair": "unknown", "phone": "unknown", "email": "unknown", "website": "unknown", "latitude": 52.4739996, "longitude": 13.4500583 }, "geometry": { "type": "Point", "coordinates": [ 13.4500583, 52.4739996 ] } },
{ "type": "Feature", "properties": { "element": "node", "id": 6209968182, "name": "Projektraum Spreefeld", "street": "Wilhelmine-Gemberg-Weg", "housenumber": "12", "postcode": "10179", "city": "Berlin", "country": "unknown", "suburb": "Mitte", "opening_hours": "unknown", "internet_access": "unknown", "wheelchair": "unknown", "phone": "unknown", "email": "unknown", "website": "unknown", "latitude": 52.5107384, "longitude": 13.4249821 }, "geometry": { "type": "Point", "coordinates": [ 13.4249821, 52.5107384 ] } },
{ "type": "Feature", "properties": { "element": "node", "id": 6247546814, "name": "Thinkfarm Berlin", "street": "Oberlandstraße", "housenumber": "26-35", "postcode": "12099", "city": "Berlin", "country": "DE", "suburb": "Tempelhof", "opening_hours": "Mo-Fr 10:00-18:00", "internet_access": "unknown", "wheelchair": "unknown", "phone": "unknown", "email": "unknown", "website": "http://www.thinkfarm.org/", "latitude": 52.4645707, "longitude": 13.4089328 }, "geometry": { "type": "Point", "coordinates": [ 13.4089328, 52.4645707 ] } },
{ "type": "Feature", "properties": { "element": "node", "id": 6292662742, "name": "Unicorn Brunnenviertel", "street": "Brunnenstraße", "housenumber": "64-65", "postcode": "13355", "city": "Berlin", "country": "unknown", "suburb": "Gesundbrunnen", "opening_hours": "unknown", "internet_access": "unknown", "wheelchair": "yes", "phone": "unknown", "email": "unknown", "website": "unknown", "latitude": 52.5406763, "longitude": 13.3946326 }, "geometry": { "type": "Point", "coordinates": [ 13.3946326, 52.5406763 ] } },
{ "type": "Feature", "properties": { "element": "node", "id": 6381055401, "name": "Le Box", "street": "Schliemannstraße", "housenumber": "19", "postcode": "10437", "city": "Berlin", "country": "DE", "suburb": "Prenzlauer Berg", "opening_hours": "unknown", "internet_access": "unknown", "wheelchair": "unknown", "phone": "unknown", "email": "unknown", "website": "unknown", "latitude": 52.544151, "longitude": 13.4203548 }, "geometry": { "type": "Point", "coordinates": [ 13.4203548, 52.544151 ] } },
{ "type": "Feature", "properties": { "element": "node", "id": 6482027594, "name": "The Drivery", "street": "Mariendorfer Damm", "housenumber": "1", "postcode": "12099", "city": "Berlin", "country": "DE", "suburb": "Tempelhof", "opening_hours": "unknown", "internet_access": "unknown", "wheelchair": "unknown", "phone": "unknown", "email": "unknown", "website": "unknown", "latitude": 52.4534017, "longitude": 13.385199 }, "geometry": { "type": "Point", "coordinates": [ 13.385199, 52.4534017 ] } },
{ "type": "Feature", "properties": { "element": "node", "id": 6562944448, "name": "Unicorn Workspaces Checkpoint Charlie", "street": "Markgrafenstraße", "housenumber": "62/63", "postcode": "10969", "city": "Berlin", "country": "unknown", "suburb": "Kreuzberg", "opening_hours": "unknown", "internet_access": "unknown", "wheelchair": "unknown", "phone": "unknown", "email": "unknown", "website": "unknown", "latitude": 52.5076824, "longitude": 13.3939841 }, "geometry": { "type": "Point", "coordinates": [ 13.3939841, 52.5076824 ] } },
{ "type": "Feature", "properties": { "element": "node", "id": 6665939437, "name": "Full Node", "street": "Glogauer Straße", "housenumber": "6", "postcode": "10999", "city": "Berlin", "country": "DE", "suburb": "Kreuzberg", "opening_hours": "unknown", "internet_access": "unknown", "wheelchair": "unknown", "phone": "unknown", "email": "unknown", "website": "https://www.fullnode.berlin/", "latitude": 52.4940989, "longitude": 13.4377411 }, "geometry": { "type": "Point", "coordinates": [ 13.4377411, 52.4940989 ] } },
{ "type": "Feature", "properties": { "element": "node", "id": 6737950019, "name": "Design Offices", "street": "Unter den Linden", "housenumber": "26-30", "postcode": "10117", "city": "Berlin", "country": "DE", "suburb": "Mitte", "opening_hours": "Mo-Fr 8:30-18:00", "internet_access": "unknown", "wheelchair": "no", "phone": "+49 30 7262160", "email": "berlin.unterdenlinden@designoffices.de", "website": "https://www.designoffices.de/standorte/berlin-unter-den-linden/", "latitude": 52.5172821, "longitude": 13.3882458 }, "geometry": { "type": "Point", "coordinates": [ 13.3882458, 52.5172821 ] } },
{ "type": "Feature", "properties": { "element": "node", "id": 6776294263, "name": "Coworking Motorwerk Berlin", "street": "An der Industriebahn", "housenumber": "12", "postcode": "13088", "city": "Berlin", "country": "unknown", "suburb": "Weißensee", "opening_hours": "Mo-Fr 09:00-18:00", "internet_access": "yes", "wheelchair": "unknown", "phone": "unknown", "email": "unknown", "website": "unknown", "latitude": 52.5634242, "longitude": 13.4612349 }, "geometry": { "type": "Point", "coordinates": [ 13.4612349, 52.5634242 ] } },
{ "type": "Feature", "properties": { "element": "node", "id": 6906852861, "name": "bUm - Raum für solidarisches Miteinander", "street": "Paul-Lincke-Ufer", "housenumber": "21", "postcode": "10999", "city": "Berlin", "country": "DE", "suburb": "Kreuzberg", "opening_hours": "unknown", "internet_access": "wlan", "wheelchair": "unknown", "phone": "unknown", "email": "kontakt@bum.berlin", "website": "https://bum.berlin", "latitude": 52.4937932, "longitude": 13.4296611 }, "geometry": { "type": "Point", "coordinates": [ 13.4296611, 52.4937932 ] } },
{ "type": "Feature", "properties": { "element": "node", "id": 6915842784, "name": "Unicorn Village", "street": "Richardstraße", "housenumber": "85/86", "postcode": "12043", "city": "Berlin", "country": "DE", "suburb": "Neukölln", "opening_hours": "unknown", "internet_access": "unknown", "wheelchair": "unknown", "phone": "unknown", "email": "unknown", "website": "unknown", "latitude": 52.4759286, "longitude": 13.4437324 }, "geometry": { "type": "Point", "coordinates": [ 13.4437324, 52.4759286 ] } },
{ "type": "Feature", "properties": { "element": "node", "id": 7137713853, "name": "Multimediabüro Bild-Schrift-Zahl", "street": "Weidenweg", "housenumber": "51", "postcode": "10249", "city": "Berlin", "country": "unknown", "suburb": "Friedrichshain", "opening_hours": "unknown", "internet_access": "yes", "wheelchair": "unknown", "phone": "unknown", "email": "unknown", "website": "unknown", "latitude": 52.5185719, "longitude": 13.4522586 }, "geometry": { "type": "Point", "coordinates": [ 13.4522586, 52.5185719 ] } },
{ "type": "Feature", "properties": { "element": "node", "id": 7188845984, "name": "CIC Innovation Campus", "street": "Lohmühlenstraße", "housenumber": "65", "postcode": "12435", "city": "Berlin", "country": "DE", "suburb": "Alt-Treptow", "opening_hours": "unknown", "internet_access": "unknown", "wheelchair": "unknown", "phone": "unknown", "email": "unknown", "website": "unknown", "latitude": 52.494111, "longitude": 13.4463076 }, "geometry": { "type": "Point", "coordinates": [ 13.4463076, 52.494111 ] } },
{ "type": "Feature", "properties": { "element": "node", "id": 7230005416, "name": "Design Offices", "street": "Leipziger Platz", "housenumber": "16", "postcode": "10117", "city": "Berlin", "country": "DE", "suburb": "Mitte", "opening_hours": "Mo-Fr 08:30-18:00", "internet_access": "unknown", "wheelchair": "unknown", "phone": "+49 30 700149850", "email": "berlin.leipzigerplatz@designoffices.de", "website": "https://www.designoffices.de/standorte/berlin-leipziger-platz/", "latitude": 52.5103646, "longitude": 13.3779461 }, "geometry": { "type": "Point", "coordinates": [ 13.3779461, 52.5103646 ] } },
{ "type": "Feature", "properties": { "element": "node", "id": 7230033703, "name": "Design Offices", "street": "Koppenstraße", "housenumber": "93", "postcode": "10243", "city": "Berlin", "country": "DE", "suburb": "Friedrichshain", "opening_hours": "Mo-Fr 08:30-18:00", "internet_access": "unknown", "wheelchair": "unknown", "phone": "+49 30 76758500", "email": "berlin.ostbahnhof@designoffices.de", "website": "https://www.designoffices.de/standorte/berlin-ostbahnhof/", "latitude": 52.5123646, "longitude": 13.433266 }, "geometry": { "type": "Point", "coordinates": [ 13.433266, 52.5123646 ] } },
{ "type": "Feature", "properties": { "element": "node", "id": 7230406904, "name": "Design Offices", "street": "Bertolt-Brecht-Platz", "housenumber": "3", "postcode": "10117", "city": "Berlin", "country": "DE", "suburb": "Mitte", "opening_hours": "Mo-Fr 08:30-18:00", "internet_access": "unknown", "wheelchair": "unknown", "phone": "+49 30 58581340", "email": "berlin.amzirkus@designoffices.de", "website": "https://www.designoffices.de/standorte/berlin-am-zirkus/", "latitude": 52.5225746, "longitude": 13.3866189 }, "geometry": { "type": "Point", "coordinates": [ 13.3866189, 52.5225746 ] } },
{ "type": "Feature", "properties": { "element": "node", "id": 7230406911, "name": "Design Offices", "street": "Alexanderufer", "housenumber": "3-7", "postcode": "10117", "city": "Berlin", "country": "DE", "suburb": "Mitte", "opening_hours": "Mo-Fr 08:30-18:00", "internet_access": "unknown", "wheelchair": "unknown", "phone": "+49 30 726216250", "email": "berlin.humboldthafen@designoffices.de", "website": "https://www.designoffices.de/standorte/berlin-humboldthafen/", "latitude": 52.5239931, "longitude": 13.373505 }, "geometry": { "type": "Point", "coordinates": [ 13.373505, 52.5239931 ] } },
{ "type": "Feature", "properties": { "element": "node", "id": 7232509214, "name": "Mandel Open Space", "street": "Nollendorfstraße", "housenumber": "21a", "postcode": "10777", "city": "Berlin", "country": "DE", "suburb": "Schöneberg", "opening_hours": "unknown", "internet_access": "unknown", "wheelchair": "unknown", "phone": "unknown", "email": "unknown", "website": "unknown", "latitude": 52.4975921, "longitude": 13.3501157 }, "geometry": { "type": "Point", "coordinates": [ 13.3501157, 52.4975921 ] } },
{ "type": "Feature", "properties": { "element": "node", "id": 7238666094, "name": "Dugnad", "street": "Kienitzer Straße", "housenumber": "16", "postcode": "12053", "city": "Berlin", "country": "DE", "suburb": "Neukölln", "opening_hours": "unknown", "internet_access": "unknown", "wheelchair": "unknown", "phone": "unknown", "email": "unknown", "website": "unknown", "latitude": 52.4773821, "longitude": 13.4361939 }, "geometry": { "type": "Point", "coordinates": [ 13.4361939, 52.4773821 ] } },
{ "type": "Feature", "properties": { "element": "node", "id": 7287756217, "name": "L19 Bürogemeinschaft", "street": "Lychener Straße", "housenumber": "19", "postcode": "10437", "city": "Berlin", "country": "DE", "suburb": "Prenzlauer Berg", "opening_hours": "unknown", "internet_access": "unknown", "wheelchair": "limited", "phone": "unknown", "email": "unknown", "website": "unknown", "latitude": 52.5421791, "longitude": 13.4156019 }, "geometry": { "type": "Point", "coordinates": [ 13.4156019, 52.5421791 ] } },
{ "type": "Feature", "properties": { "element": "node", "id": 7391615707, "name": "Trust", "street": "Kluckstraße", "housenumber": "25", "postcode": "10785", "city": "Berlin", "country": "unknown", "suburb": "Tiergarten", "opening_hours": "unknown", "internet_access": "wlan", "wheelchair": "unknown", "phone": "unknown", "email": "unknown", "website": "unknown", "latitude": 52.5029919, "longitude": 13.3615323 }, "geometry": { "type": "Point", "coordinates": [ 13.3615323, 52.5029919 ] } },
{ "type": "Feature", "properties": { "element": "node", "id": 7413573732, "name": "Boho Space", "street": "Bülowstraße", "housenumber": "6", "postcode": "10783", "city": "Berlin", "country": "DE", "suburb": "Schöneberg", "opening_hours": "unknown", "internet_access": "unknown", "wheelchair": "unknown", "phone": "unknown", "email": "unknown", "website": "unknown", "latitude": 52.4987853, "longitude": 13.3561157 }, "geometry": { "type": "Point", "coordinates": [ 13.3561157, 52.4987853 ] } },
{ "type": "Feature", "properties": { "element": "node", "id": 7642397163, "name": "Fireworks", "street": "Stockholmer Straße", "housenumber": "4", "postcode": "13359", "city": "Berlin", "country": "DE", "suburb": "Gesundbrunnen", "opening_hours": "24/7", "internet_access": "yes", "wheelchair": "unknown", "phone": "unknown", "email": "unknown", "website": "https://fireworkscoworking.wordpress.com/", "latitude": 52.5569465, "longitude": 13.3829524 }, "geometry": { "type": "Point", "coordinates": [ 13.3829524, 52.5569465 ] } },
{ "type": "Feature", "properties": { "element": "node", "id": 7849919720, "name": "everyworks Coworking", "street": "Europaplatz", "housenumber": "2", "postcode": "10557", "city": "Berlin", "country": "unknown", "suburb": "Moabit", "opening_hours": "Mo-Fr 08:30-18:30", "internet_access": "yes", "wheelchair": "unknown", "phone": "unknown", "email": "everyworks@deutschebahn.com", "website": "unknown", "latitude": 52.5255465, "longitude": 13.3695814 }, "geometry": { "type": "Point", "coordinates": [ 13.3695814, 52.5255465 ] } },
{ "type": "Feature", "properties": { "element": "node", "id": 8435106280, "name": "Colonies", "street": "Paul-Robeson-Straße", "housenumber": "", "postcode": "10439", "city": "Berlin", "country": "unknown", "suburb": "Prenzlauer Berg", "opening_hours": "unknown", "internet_access": "unknown", "wheelchair": "unknown", "phone": "unknown", "email": "unknown", "website": "unknown", "latitude": 52.5523168, "longitude": 13.4138173 }, "geometry": { "type": "Point", "coordinates": [ 13.4138173, 52.5523168 ] } },
{ "type": "Feature", "properties": { "element": "node", "id": 8504974471, "name": "Raum", "street": "Karl-Kunger-Straße", "housenumber": "7", "postcode": "12435", "city": "Berlin", "country": "DE", "suburb": "Alt-Treptow", "opening_hours": "unknown", "internet_access": "unknown", "wheelchair": "unknown", "phone": "unknown", "email": "unknown", "website": "unknown", "latitude": 52.4920791, "longitude": 13.4456736 }, "geometry": { "type": "Point", "coordinates": [ 13.4456736, 52.4920791 ] } },
{ "type": "Feature", "properties": { "element": "node", "id": 8558166183, "name": "District One", "street": "Hauptstraße", "housenumber": "151", "postcode": "10827", "city": "Berlin", "country": "unknown", "suburb": "Schöneberg", "opening_hours": "unknown", "internet_access": "unknown", "wheelchair": "unknown", "phone": "unknown", "email": "unknown", "website": "unknown", "latitude": 52.4882188, "longitude": 13.3586479 }, "geometry": { "type": "Point", "coordinates": [ 13.3586479, 52.4882188 ] } },
{ "type": "Feature", "properties": { "element": "node", "id": 8860242234, "name": "Studio Neuf", "street": "Gneisenaustraße", "housenumber": "42", "postcode": "10961", "city": "Berlin", "country": "DE", "suburb": "Kreuzberg", "opening_hours": "unknown", "internet_access": "unknown", "wheelchair": "unknown", "phone": "unknown", "email": "unknown", "website": "unknown", "latitude": 52.4895444, "longitude": 13.4010469 }, "geometry": { "type": "Point", "coordinates": [ 13.4010469, 52.4895444 ] } },
{ "type": "Feature", "properties": { "element": "node", "id": 8946005121, "name": "WeWork", "street": "Friedrichstraße", "housenumber": "76", "postcode": "10117", "city": "Berlin", "country": "unknown", "suburb": "Mitte", "opening_hours": "24/7", "internet_access": "wlan", "wheelchair": "yes", "phone": "unknown", "email": "unknown", "website": "unknown", "latitude": 52.5141245, "longitude": 13.3894807 }, "geometry": { "type": "Point", "coordinates": [ 13.3894807, 52.5141245 ] } },
{ "type": "Feature", "properties": { "element": "node", "id": 9412281805, "name": "Scaling Spaces Berlin", "street": "Schwedenstraße", "housenumber": "9", "postcode": "13359", "city": "Berlin", "country": "unknown", "suburb": "Gesundbrunnen", "opening_hours": "unknown", "internet_access": "unknown", "wheelchair": "unknown", "phone": "unknown", "email": "unknown", "website": "unknown", "latitude": 52.5579706, "longitude": 13.3735077 }, "geometry": { "type": "Point", "coordinates": [ 13.3735077, 52.5579706 ] } },
{ "type": "Feature", "properties": { "element": "node", "id": 9579013991, "name": "Helix Hub", "street": "Invalidenstraße", "housenumber": "113", "postcode": "10115", "city": "Berlin", "country": "unknown", "suburb": "Mitte", "opening_hours": "unknown", "internet_access": "unknown", "wheelchair": "unknown", "phone": "unknown", "email": "unknown", "website": "unknown", "latitude": 52.5306531, "longitude": 13.3839031 }, "geometry": { "type": "Point", "coordinates": [ 13.3839031, 52.5306531 ] } },
{ "type": "Feature", "properties": { "element": "node", "id": 9587817329, "name": "SpielundLern.de", "street": "Damaschkestraße", "housenumber": "34", "postcode": "10711", "city": "Berlin", "country": "DE", "suburb": "Charlottenburg", "opening_hours": "Mo-Fr 09:00-17:00", "internet_access": "unknown", "wheelchair": "no", "phone": "unknown", "email": "unknown", "website": "unknown", "latitude": 52.5013588, "longitude": 13.2975362 }, "geometry": { "type": "Point", "coordinates": [ 13.2975362, 52.5013588 ] } },
{ "type": "Feature", "properties": { "element": "node", "id": 9760895495, "name": "AI Campus Berlin", "street": "Max-Urich-Straße", "housenumber": "3", "postcode": "13355", "city": "Berlin", "country": "DE", "suburb": "Gesundbrunnen", "opening_hours": "24/7", "internet_access": "wlan", "wheelchair": "yes", "phone": "unknown", "email": "unknown", "website": "https://www.merantix-aicampus.com/", "latitude": 52.5394385, "longitude": 13.3838217 }, "geometry": { "type": "Point", "coordinates": [ 13.3838217, 52.5394385 ] } },
{ "type": "Feature", "properties": { "element": "node", "id": 9785443467, "name": "P3A coworking", "street": "Perleberger Straße", "housenumber": "3A", "postcode": "10559", "city": "Berlin", "country": "unknown", "suburb": "Moabit", "opening_hours": "unknown", "internet_access": "unknown", "wheelchair": "unknown", "phone": "unknown", "email": "unknown", "website": "unknown", "latitude": 52.5354917, "longitude": 13.3561773 }, "geometry": { "type": "Point", "coordinates": [ 13.3561773, 52.5354917 ] } },
{ "type": "Feature", "properties": { "element": "node", "id": 9858163499, "name": "b+ office Coworking Space", "street": "Dudenstraße", "housenumber": "10", "postcode": "10965", "city": "Berlin", "country": "DE", "suburb": "Kreuzberg", "opening_hours": "Mo-Fr 09:00-18:00", "internet_access": "wlan", "wheelchair": "unknown", "phone": "+49 30 3980994-0", "email": "unknown", "website": "https://bplusoffice.de/", "latitude": 52.4854344, "longitude": 13.3838886 }, "geometry": { "type": "Point", "coordinates": [ 13.3838886, 52.4854344 ] } },
{ "type": "Feature", "properties": { "element": "node", "id": 9994298479, "name": "Coworking Toddler", "street": "Greifenhagener Straße", "housenumber": "48", "postcode": "10437", "city": "Berlin", "country": "DE", "suburb": "Prenzlauer Berg", "opening_hours": "unknown", "internet_access": "unknown", "wheelchair": "yes", "phone": "unknown", "email": "unknown", "website": "unknown", "latitude": 52.5486175, "longitude": 13.4160056 }, "geometry": { "type": "Point", "coordinates": [ 13.4160056, 52.5486175 ] } },
{ "type": "Feature", "properties": { "element": "node", "id": 10124884255, "name": "& Co", "street": "Hauptstraße", "housenumber": "153", "postcode": "10827", "city": "Berlin", "country": "DE", "suburb": "Schöneberg", "opening_hours": "unknown", "internet_access": "unknown", "wheelchair": "unknown", "phone": "unknown", "email": "unknown", "website": "unknown", "latitude": 52.4885808, "longitude": 13.3589461 }, "geometry": { "type": "Point", "coordinates": [ 13.3589461, 52.4885808 ] } },
{ "type": "Feature", "properties": { "element": "node", "id": 10139298164, "name": "Plantage Bürogemeinschaft", "street": "Prinz-Eugen-Straße", "housenumber": "29A", "postcode": "13347", "city": "Berlin", "country": "unknown", "suburb": "Wedding", "opening_hours": "\"nach Anwesenheit\"", "internet_access": "wlan", "wheelchair": "no", "phone": "unknown", "email": "unknown", "website": "unknown", "latitude": 52.5466015, "longitude": 13.3663377 }, "geometry": { "type": "Point", "coordinates": [ 13.3663377, 52.5466015 ] } },
{ "type": "Feature", "properties": { "element": "node", "id": 10314570431, "name": "Spielhalle 2", "street": "Grunewaldstraße", "housenumber": "81", "postcode": "10823", "city": "Berlin", "country": "DE", "suburb": "Schöneberg", "opening_hours": "unknown", "internet_access": "unknown", "wheelchair": "unknown", "phone": "unknown", "email": "unknown", "website": "https://www.spielhallezwei.berlin/", "latitude": 52.4898377, "longitude": 13.354489 }, "geometry": { "type": "Point", "coordinates": [ 13.354489, 52.4898377 ] } },
{ "type": "Feature", "properties": { "element": "node", "id": 10698030584, "name": "CI Space", "street": "Bugenhagenstraße", "housenumber": "9", "postcode": "10551", "city": "Berlin", "country": "unknown", "suburb": "Moabit", "opening_hours": "Mo-Sa 10:00-22:00", "internet_access": "wlan", "wheelchair": "unknown", "phone": "unknown", "email": "unknown", "website": "unknown", "latitude": 52.5280242, "longitude": 13.3417811 }, "geometry": { "type": "Point", "coordinates": [ 13.3417811, 52.5280242 ] } },
{ "type": "Feature", "properties": { "element": "node", "id": 10709904818, "name": "Tempelgehöft Co-Working", "street": "Tempelhofer Damm", "housenumber": "152", "postcode": "12099", "city": "Berlin", "country": "unknown", "suburb": "Tempelhof", "opening_hours": "unknown", "internet_access": "yes", "wheelchair": "yes", "phone": "unknown", "email": "unknown", "website": "unknown", "latitude": 52.4648209, "longitude": 13.384876 }, "geometry": { "type": "Point", "coordinates": [ 13.384876, 52.4648209 ] } },
{ "type": "Feature", "properties": { "element": "node", "id": 10762203059, "name": "WeWork", "street": "Dircksenstraße", "housenumber": "3", "postcode": "10179", "city": "Berlin", "country": "unknown", "suburb": "Mitte", "opening_hours": "unknown", "internet_access": "unknown", "wheelchair": "unknown", "phone": "unknown", "email": "unknown", "website": "unknown", "latitude": 52.5165745, "longitude": 13.4170552 }, "geometry": { "type": "Point", "coordinates": [ 13.4170552, 52.5165745 ] } },
{ "type": "Feature", "properties": { "element": "node", "id": 10836585149, "name": "Mindspace Kurfürstendamm", "street": "Uhlandstraße", "housenumber": "32", "postcode": "10719", "city": "Berlin", "country": "unknown", "suburb": "Charlottenburg", "opening_hours": "Mo-Fr 09:00-18:00", "internet_access": "unknown", "wheelchair": "unknown", "phone": "unknown", "email": "unknown", "website": "unknown", "latitude": 52.5004908, "longitude": 13.3247679 }, "geometry": { "type": "Point", "coordinates": [ 13.3247679, 52.5004908 ] } },
{ "type": "Feature", "properties": { "element": "node", "id": 10924900900, "name": "Dein Freiraum", "street": "Käthe-Niederkirchner-Straße", "housenumber": "25", "postcode": "10407", "city": "Berlin", "country": "unknown", "suburb": "Prenzlauer Berg", "opening_hours": "unknown", "internet_access": "unknown", "wheelchair": "unknown", "phone": "unknown", "email": "unknown", "website": "unknown", "latitude": 52.5300167, "longitude": 13.4333096 }, "geometry": { "type": "Point", "coordinates": [ 13.4333096, 52.5300167 ] } },
{ "type": "Feature", "properties": { "element": "node", "id": 11329072823, "name": "WeWork", "street": "Rosenthaler Straße", "housenumber": "43", "postcode": "10178", "city": "Berlin", "country": "unknown", "suburb": "Mitte", "opening_hours": "unknown", "internet_access": "unknown", "wheelchair": "yes", "phone": "unknown", "email": "unknown", "website": "unknown", "latitude": 52.5240425, "longitude": 13.4029404 }, "geometry": { "type": "Point", "coordinates": [ 13.4029404, 52.5240425 ] } },
{ "type": "Feature", "properties": { "element": "node", "id": 11599651993, "name": "WeWork", "street": "Warschauer Platz", "housenumber": "11-13", "postcode": "10245", "city": "Berlin", "country": "DE", "suburb": "Friedrichshain", "opening_hours": "Mo-Su,PH 09:00-18:00", "internet_access": "unknown", "wheelchair": "unknown", "phone": "unknown", "email": "unknown", "website": "unknown", "latitude": 52.5044523, "longitude": 13.4495322 }, "geometry": { "type": "Point", "coordinates": [ 13.4495322, 52.5044523 ] } },
{ "type": "Feature", "properties": { "element": "node", "id": 11668641554, "name": "Techspace", "street": "Köpenicker Straße", "housenumber": "40B", "postcode": "10179", "city": "Berlin", "country": "unknown", "suburb": "Mitte", "opening_hours": "unknown", "internet_access": "unknown", "wheelchair": "unknown", "phone": "unknown", "email": "unknown", "website": "unknown", "latitude": 52.5091928, "longitude": 13.4255042 }, "geometry": { "type": "Point", "coordinates": [ 13.4255042, 52.5091928 ] } },
{ "type": "Feature", "properties": { "element": "node", "id": 11883127357, "name": "Velt.studio", "street": "Urbanstraße", "housenumber": "71", "postcode": "10967", "city": "Berlin", "country": "unknown", "suburb": "Kreuzberg", "opening_hours": "unknown", "internet_access": "wlan", "wheelchair": "unknown", "phone": "unknown", "email": "unknown", "website": "unknown", "latitude": 52.4878454, "longitude": 13.4232894 }, "geometry": { "type": "Point", "coordinates": [ 13.4232894, 52.4878454 ] } },
{ "type": "Feature", "properties": { "element": "node", "id": 11969057469, "name": "Unicorn Workspaces Gendarmenmarkt", "street": "Französische Straße", "housenumber": "24", "postcode": "10117", "city": "Berlin", "country": "unknown", "suburb": "Mitte", "opening_hours": "unknown", "internet_access": "unknown", "wheelchair": "unknown", "phone": "unknown", "email": "unknown", "website": "unknown", "latitude": 52.5146364, "longitude": 13.3904675 }, "geometry": { "type": "Point", "coordinates": [ 13.3904675, 52.5146364 ] } },
{ "type": "Feature", "properties": { "element": "node", "id": 12320665016, "name": "Das Arbeitszimmer", "street": "Westerlandstraße", "housenumber": "", "postcode": "13189", "city": "Berlin", "country": "unknown", "suburb": "Pankow", "opening_hours": "unknown", "internet_access": "unknown", "wheelchair": "unknown", "phone": "unknown", "email": "unknown", "website": "unknown", "latitude": 52.5580996, "longitude": 13.4147115 }, "geometry": { "type": "Point", "coordinates": [ 13.4147115, 52.5580996 ] } },
{ "type": "Feature", "properties": { "element": "node", "id": 12323829281, "name": "Gesoworx", "street": "Langhansstraße", "housenumber": "", "postcode": "13086", "city": "Berlin", "country": "unknown", "suburb": "Weißensee", "opening_hours": "unknown", "internet_access": "unknown", "wheelchair": "unknown", "phone": "unknown", "email": "unknown", "website": "unknown", "latitude": 52.5511393, "longitude": 13.4429771 }, "geometry": { "type": "Point", "coordinates": [ 13.4429771, 52.5511393 ] } },
{ "type": "Feature", "properties": { "element": "node", "id": 12549343111, "name": "Creon", "street": "Methfesselstraße", "housenumber": "43", "postcode": "10965", "city": "Berlin", "country": "unknown", "suburb": "Kreuzberg", "opening_hours": "unknown", "internet_access": "unknown", "wheelchair": "unknown", "phone": "unknown", "email": "unknown", "website": "unknown", "latitude": 52.4859683, "longitude": 13.3837321 }, "geometry": { "type": "Point", "coordinates": [ 13.3837321, 52.4859683 ] } },
{ "type": "Feature", "properties": { "element": "node", "id": 12652533338, "name": "The Gate (TOR 201)", "street": "Torstraße", "housenumber": "201", "postcode": "10115", "city": "Berlin", "country": "DE", "suburb": "Mitte", "opening_hours": "unknown", "internet_access": "unknown", "wheelchair": "unknown", "phone": "unknown", "email": "unknown", "website": "unknown", "latitude": 52.5281159, "longitude": 13.3910714 }, "geometry": { "type": "Point", "coordinates": [ 13.3910714, 52.5281159 ] } },
{ "type": "Feature", "properties": { "element": "node", "id": 12747635245, "name": "Unicorn Workspaces", "street": "Gerichtstraße", "housenumber": "", "postcode": "13347", "city": "Berlin", "country": "unknown", "suburb": "Wedding", "opening_hours": "unknown", "internet_access": "unknown", "wheelchair": "unknown", "phone": "unknown", "email": "unknown", "website": "unknown", "latitude": 52.5446418, "longitude": 13.3665649 }, "geometry": { "type": "Point", "coordinates": [ 13.3665649, 52.5446418 ] } },
{ "type": "Feature", "properties": { "element": "node", "id": 12849133414, "name": "St. Oberholz", "street": "Boxhagener Straße", "housenumber": "18", "postcode": "10245", "city": "Berlin", "country": "unknown", "suburb": "Friedrichshain", "opening_hours": "24/7", "internet_access": "unknown", "wheelchair": "unknown", "phone": "unknown", "email": "unknown", "website": "unknown", "latitude": 52.5127959, "longitude": 13.4552451 }, "geometry": { "type": "Point", "coordinates": [ 13.4552451, 52.5127959 ] } },
{ "type": "Feature", "properties": { "element": "node", "id": 12895456956, "name": "Engelnest Coworking Space and Event Venue", "street": "Wilhelm-Kabus-Straße", "housenumber": "22-24", "postcode": "10829", "city": "Berlin", "country": "unknown", "suburb": "Schöneberg", "opening_hours": "unknown", "internet_access": "yes", "wheelchair": "unknown", "phone": "unknown", "email": "unknown", "website": "unknown", "latitude": 52.4826871, "longitude": 13.3673876 }, "geometry": { "type": "Point", "coordinates": [ 13.3673876, 52.4826871 ] } },
{ "type": "Feature", "properties": { "element": "node", "id": 12901742928, "name": "w3.hub", "street": "Möckernstraße", "housenumber": "", "postcode": "10963", "city": "Berlin", "country": "unknown", "suburb": "Kreuzberg", "opening_hours": "Mo-Fr 09:00-18:00", "internet_access": "unknown", "wheelchair": "unknown", "phone": "unknown", "email": "unknown", "website": "unknown", "latitude": 52.4980122, "longitude": 13.380209 }, "geometry": { "type": "Point", "coordinates": [ 13.380209, 52.4980122 ] } },
{ "type": "Feature", "properties": { "element": "node", "id": 13161553092, "name": "werkhain", "street": "Frankfurter Allee", "housenumber": "108", "postcode": "10247", "city": "Berlin", "country": "unknown", "suburb": "Friedrichshain", "opening_hours": "unknown", "internet_access": "unknown", "wheelchair": "unknown", "phone": "unknown", "email": "unknown", "website": "unknown", "latitude": 52.512941, "longitude": 13.4748102 }, "geometry": { "type": "Point", "coordinates": [ 13.4748102, 52.512941 ] } },
{ "type": "Feature", "properties": { "element": "node", "id": 13373918885, "name": "CU.Office", "street": "Genter Straße", "housenumber": "56", "postcode": "13353", "city": "Berlin", "country": "unknown", "suburb": "Wedding", "opening_hours": "unknown", "internet_access": "unknown", "wheelchair": "unknown", "phone": "unknown", "email": "unknown", "website": "unknown", "latitude": 52.5481408, "longitude": 13.3528978 }, "geometry": { "type": "Point", "coordinates": [ 13.3528978, 52.5481408 ] } },
{ "type": "Feature", "properties": { "element": "way", "id": 85643128, "name": "werkhain", "street": "Frankfurter Allee", "housenumber": "108", "postcode": "10247", "city": "Berlin", "country": "unknown", "suburb": "Friedrichshain", "opening_hours": "unknown", "internet_access": "unknown", "wheelchair": "unknown", "phone": "unknown", "email": "unknown", "website": "unknown", "latitude": 52.512884588454497, "longitude": 13.474792075588089 }, "geometry": { "type": "Point", "coordinates": [ 13.474792937225654, 52.5128867 ] } },
{ "type": "Feature", "properties": { "element": "way", "id": 116482873, "name": "KAOS Halle", "street": "Wilhelminenhofstraße", "housenumber": "", "postcode": "12459", "city": "Berlin", "country": "unknown", "suburb": "Oberschöneweide", "opening_hours": "unknown", "internet_access": "unknown", "wheelchair": "unknown", "phone": "unknown", "email": "unknown", "website": "unknown", "latitude": 52.462438214484244, "longitude": 13.509207565790492 }, "geometry": { "type": "Point", "coordinates": [ 13.509252320040687, 52.46246525 ] } },
{ "type": "Feature", "properties": { "element": "way", "id": 262752250, "name": "HAUS  1", "street": "Oberlandstraße", "housenumber": "25-36", "postcode": "12099", "city": "Berlin", "country": "unknown", "suburb": "Tempelhof", "opening_hours": "unknown", "internet_access": "unknown", "wheelchair": "unknown", "phone": "unknown", "email": "unknown", "website": "unknown", "latitude": 52.46438794759451, "longitude": 13.410746939971459 }, "geometry": { "type": "Point", "coordinates": [ 13.410747244291244, 52.46438595 ] } },
{ "type": "Feature", "properties": { "element": "way", "id": 293386119, "name": "Coworking Holzmarkt", "street": "", "housenumber": "43", "postcode": "10243", "city": "Berlin", "country": "DE", "suburb": "Friedrichshain", "opening_hours": "unknown", "internet_access": "wlan", "wheelchair": "unknown", "phone": "unknown", "email": "unknown", "website": "unknown", "latitude": 52.512511382822474, "longitude": 13.423889145179139 }, "geometry": { "type": "Point", "coordinates": [ 13.423889141497053, 52.51251135 ] } },
{ "type": "Feature", "properties": { "element": "way", "id": 389457705, "name": "unknown", "street": "Scharnweberstraße", "housenumber": "", "postcode": "10247", "city": "Berlin", "country": "unknown", "suburb": "Friedrichshain", "opening_hours": "unknown", "internet_access": "unknown", "wheelchair": "unknown", "phone": "unknown", "email": "unknown", "website": "unknown", "latitude": 52.512696193318384, "longitude": 13.474739798976056 }, "geometry": { "type": "Point", "coordinates": [ 13.474739760017535, 52.51269625 ] } },
{ "type": "Feature", "properties": { "element": "way", "id": 389457733, "name": "werkhain", "street": "Frankfurter Allee", "housenumber": "108", "postcode": "10247", "city": "Berlin", "country": "unknown", "suburb": "Friedrichshain", "opening_hours": "unknown", "internet_access": "unknown", "wheelchair": "unknown", "phone": "unknown", "email": "unknown", "website": "unknown", "latitude": 52.512781484073635, "longitude": 13.474764348196144 }, "geometry": { "type": "Point", "coordinates": [ 13.474764183717376, 52.5127819 ] } },
{ "type": "Feature", "properties": { "element": "way", "id": 679549771, "name": "B-Part", "street": "Luckenwalder Straße", "housenumber": "6b", "postcode": "10963", "city": "Berlin", "country": "DE", "suburb": "Kreuzberg", "opening_hours": "Mo-Fr 09:00-18:00", "internet_access": "unknown", "wheelchair": "unknown", "phone": "unknown", "email": "unknown", "website": "unknown", "latitude": 52.499079140870698, "longitude": 13.373377561693202 }, "geometry": { "type": "Point", "coordinates": [ 13.373382837371647, 52.499062 ] } }
]
}
